{
"type": "FeatureCollection",
"name": "setores_rr",
"crs": { "type": "name", "properties": { "name": "urn:ogc:def:crs:OGC:1.3:CRS84" } },
"features": [
{ "type": "Feature", "properties": { "num_setor": "RR_PACARAI_SR_6_CPRM", "munic": "PACARAIMA", "grau_risco": "Muito alto", "distancia_km": 1.58, "chuva_24h": 3.8, "chuva_72h": 6.6, "fonte_estacao": "openmeteo", "codigo_estacao": "openmeteo", "nome_estacao": "Open-Meteo (célula de grade)" }, "geometry": { "type": "Polygon", "coordinates": [ [ [ -61.128964877, 4.49085104785252 ], [ -61.129428871999949, 4.491660063852501 ], [ -61.13, 4.492129617852493 ], [ -61.131106391999943, 4.492492875852477 ], [ -61.132561712999966, 4.492993841852464 ], [ -61.133805541999948, 4.492861124852481 ], [ -61.134318663999977, 4.49245718385249 ], [ -61.134444444999986, 4.491898159852522 ], [ -61.134211587999971, 4.490684484852533 ], [ -61.134104512999954, 4.489851673852552 ], [ -61.133456759999945, 4.489876539852601 ], [ -61.133064592999972, 4.489944149852566 ], [ -61.133180470999953, 4.490509213852552 ], [ -61.132202384999964, 4.490664186852553 ], [ -61.131707261999971, 4.490759828852569 ], [ -61.131576625999962, 4.490141294852575 ], [ -61.130666833999946, 4.490203599852549 ], [ -61.128881595999985, 4.490506024852569 ], [ -61.128964877, 4.49085104785252 ] ] ] } },
{ "type": "Feature", "properties": { "num_setor": "RR_PACARAI_SR_9_CPRM", "munic": "PACARAIMA", "grau_risco": "Muito alto", "distancia_km": 1.15, "chuva_24h": 3.8, "chuva_72h": 6.6, "fonte_estacao": "openmeteo", "codigo_estacao": "openmeteo", "nome_estacao": "Open-Meteo (célula de grade)" }, "geometry": { "type": "Polygon", "coordinates": [ [ [ -61.138300638999972, 4.475957360853028 ], [ -61.138237149999945, 4.476147825853026 ], [ -61.138201457999976, 4.476283454853018 ], [ -61.138015859999939, 4.476326284853002 ], [ -61.137744600999952, 4.476219208852994 ], [ -61.137509034999944, 4.47612641085303 ], [ -61.137287744999981, 4.476169239853023 ], [ -61.137123561999942, 4.476426221853013 ], [ -61.136909410999984, 4.47682597185299 ], [ -61.136830887999963, 4.47776110085298 ], [ -61.136933591999934, 4.47792631885298 ], [ -61.13691987999993, 4.477947569852947 ], [ -61.13692939799995, 4.478047507852956 ], [ -61.137129271999974, 4.478175997852951 ], [ -61.137324388999957, 4.478328283852955 ], [ -61.137400530999962, 4.478404426852948 ], [ -61.137471276999975, 4.478465300852931 ], [ -61.137473606999947, 4.478475629852946 ], [ -61.137830037999954, 4.478921518852926 ], [ -61.138163010999961, 4.479453472852902 ], [ -61.138335208999926, 4.479934779852923 ], [ -61.138713258999985, 4.480029489852903 ], [ -61.138906412999972, 4.480287912852885 ], [ -61.138965068999937, 4.480494432852883 ], [ -61.139047053999953, 4.480530917852895 ], [ -61.139197091999968, 4.480584739852877 ], [ -61.139674658999986, 4.480536523852895 ], [ -61.140845813999988, 4.480434010852892 ], [ -61.14148849999998, 4.480373398852874 ], [ -61.141596203999939, 4.480363242852897 ], [ -61.141678524, 4.480425653852884 ], [ -61.141761843999973, 4.480846923852877 ], [ -61.14189394299995, 4.481397505852873 ], [ -61.142516350999983, 4.481608993852857 ], [ -61.143005909999935, 4.48139668485286 ], [ -61.143192553999945, 4.481114859852864 ], [ -61.14319337499996, 4.48078949685287 ], [ -61.143270499999964, 4.480454760852872 ], [ -61.143699666999971, 4.480417574852886 ], [ -61.144170479999964, 4.480277787852863 ], [ -61.144503200999971, 4.479943370852904 ], [ -61.144520414999931, 4.479336198852913 ], [ -61.144490907999973, 4.479306448852909 ], [ -61.144469909999934, 4.478557506852963 ], [ -61.144469909999934, 4.478257693852944 ], [ -61.144448494999949, 4.477850805852972 ], [ -61.144427078999961, 4.477700900852974 ], [ -61.144366639999987, 4.477660607852998 ], [ -61.144364620999959, 4.477624965852994 ], [ -61.144289667999942, 4.477098451853013 ], [ -61.144061578999981, 4.476801217853001 ], [ -61.143675660999975, 4.476644088853004 ], [ -61.143256619999939, 4.476752331853001 ], [ -61.142527709999975, 4.476586517852999 ], [ -61.140874258999979, 4.47621038585303 ], [ -61.138900429999978, 4.476017148853013 ], [ -61.138846237999985, 4.476011843853009 ], [ -61.138484054999928, 4.475975676853049 ], [ -61.138300638999972, 4.475957360853028 ] ] ] } },
{ "type": "Feature", "properties": { "num_setor": "RR_PACARAI_SR_4_CPRM", "munic": "PACARAIMA", "grau_risco": "Alto", "distancia_km": 1.11, "chuva_24h": 3.8, "chuva_72h": 6.6, "fonte_estacao": "openmeteo", "codigo_estacao": "openmeteo", "nome_estacao": "Open-Meteo (célula de grade)" }, "geometry": { "type": "Polygon", "coordinates": [ [ [ -61.139431698999942, 4.473833563853128 ], [ -61.139480673999969, 4.473818309853125 ], [ -61.139660522, 4.473822696853113 ], [ -61.140011492999975, 4.473781054853133 ], [ -61.140380308999958, 4.47374536385308 ], [ -61.140647998999953, 4.473739414853123 ], [ -61.140893938999959, 4.473676499853127 ], [ -61.140917275999989, 4.473674430853116 ], [ -61.140941486999964, 4.473645421853121 ], [ -61.141100095999938, 4.473525263853107 ], [ -61.141159581999943, 4.47339439385309 ], [ -61.141248811999958, 4.473168344853113 ], [ -61.141272606999962, 4.472859014853126 ], [ -61.141326144999937, 4.472353378853125 ], [ -61.141355887999964, 4.471990511853162 ], [ -61.141415374999951, 4.471609797853159 ], [ -61.141338041999973, 4.471276672853173 ], [ -61.141236914999972, 4.470997085853213 ], [ -61.140969225999974, 4.470646115853226 ], [ -61.140731279999954, 4.470473604853212 ], [ -61.140451692999932, 4.470390323853217 ], [ -61.140047184999958, 4.470318939853191 ], [ -61.139482062999946, 4.469860893853207 ], [ -61.138976427999978, 4.469628895853266 ], [ -61.138506482999958, 4.469521819853261 ], [ -61.137673672999938, 4.46969433185326 ], [ -61.13717993399996, 4.469962020853251 ], [ -61.136769476999973, 4.470390323853217 ], [ -61.136638606999959, 4.470788882853221 ], [ -61.136585068999977, 4.471098212853207 ], [ -61.136579119999958, 4.47139564585321 ], [ -61.136614812999937, 4.471788257853182 ], [ -61.136686195999964, 4.472121381853182 ], [ -61.136769476999973, 4.472478300853128 ], [ -61.136828963999953, 4.472585375853132 ], [ -61.136924142999987, 4.472859014853126 ], [ -61.137072858999943, 4.472977987853103 ], [ -61.137298906999938, 4.473108857853123 ], [ -61.137584442999987, 4.473227830853104 ], [ -61.137941361999935, 4.473364649853135 ], [ -61.138209051999972, 4.473453879853091 ], [ -61.138452945999973, 4.473620441853089 ], [ -61.138530278999951, 4.473679927853082 ], [ -61.138762275999966, 4.473763209853129 ], [ -61.139025131999979, 4.473784716853113 ], [ -61.139192562999945, 4.473805010853075 ], [ -61.139431698999942, 4.473833563853128 ] ] ] } },
{ "type": "Feature", "properties": { "num_setor": "RR_PACARAI_SR_5_CPRM", "munic": "PACARAIMA", "grau_risco": "Muito alto", "distancia_km": 1.16, "chuva_24h": 3.8, "chuva_72h": 6.6, "fonte_estacao": "openmeteo", "codigo_estacao": "openmeteo", "nome_estacao": "Open-Meteo (célula de grade)" }, "geometry": { "type": "Polygon", "coordinates": [ [ [ -61.138300638999972, 4.475957360853028 ], [ -61.138484054999928, 4.475975676853049 ], [ -61.138846237999985, 4.476011843853009 ], [ -61.138900429999978, 4.476017148853013 ], [ -61.140874258999979, 4.47621038585303 ], [ -61.142527709999975, 4.476586517852999 ], [ -61.143256619999939, 4.476752331853001 ], [ -61.143675660999975, 4.476644088853004 ], [ -61.144495065999934, 4.47643242685299 ], [ -61.144523812999978, 4.475783495853065 ], [ -61.144523516999989, 4.475510780853023 ], [ -61.144297764999983, 4.475307602853033 ], [ -61.143888888999989, 4.474999999853036 ], [ -61.143714796999973, 4.474617559853096 ], [ -61.143512542999986, 4.47449858685306 ], [ -61.142638888999954, 4.474444444853106 ], [ -61.14171604999995, 4.474546175853078 ], [ -61.140240783999957, 4.474153564853093 ], [ -61.13883690199998, 4.473868029853114 ], [ -61.137649456999952, 4.473950810853112 ], [ -61.137343327999986, 4.474351949853062 ], [ -61.137330230999964, 4.475761022853065 ], [ -61.137419543999961, 4.475869371853018 ], [ -61.137616139999977, 4.475889004853046 ], [ -61.138300638999972, 4.475957360853028 ] ] ] } },
{ "type": "Feature", "properties": { "num_setor": "RR_BOAVIST_SR_23_CPRM", "munic": "BOA VISTA", "grau_risco": "Alto", "distancia_km": 0.36, "chuva_24h": 0.2, "chuva_72h": 2.6, "fonte_estacao": "openmeteo", "codigo_estacao": "openmeteo", "nome_estacao": "Open-Meteo (célula de grade)" }, "geometry": { "type": "Polygon", "coordinates": [ [ [ -60.747720648999973, 2.795648892907967 ], [ -60.747717768999962, 2.795712240907991 ], [ -60.747752322999986, 2.795765510908012 ], [ -60.747779676999976, 2.795766950908017 ], [ -60.747825748999951, 2.795768389907976 ], [ -60.747841584999939, 2.795729517907972 ], [ -60.747830067999985, 2.795670488907976 ], [ -60.747786875999957, 2.795638814908022 ], [ -60.747720648999973, 2.795648892907967 ] ] ] } },
{ "type": "Feature", "properties": { "num_setor": "RR_CARACAR_SR_1_CPRM", "munic": "CARACARAÍ", "grau_risco": "Alto", "distancia_km": 0.65, "chuva_24h": 0.8, "chuva_72h": 3.2, "fonte_estacao": "openmeteo", "codigo_estacao": "openmeteo", "nome_estacao": "Open-Meteo (célula de grade)" }, "geometry": { "type": "Polygon", "coordinates": [ [ [ -61.119776574999946, 1.827327052939812 ], [ -61.117920594999987, 1.829278210939741 ], [ -61.116635685999938, 1.831324546939711 ], [ -61.11520800999994, 1.833799185939581 ], [ -61.115017652999938, 1.835036505939569 ], [ -61.113399619999946, 1.83660695093949 ], [ -61.116873632999948, 1.838082216939441 ], [ -61.122251213999952, 1.834370256939587 ], [ -61.126778138999953, 1.830908140939723 ], [ -61.125439691999979, 1.829278210939741 ], [ -61.124487907999935, 1.828564371939805 ], [ -61.123869247999956, 1.827707765939822 ], [ -61.124249961999965, 1.826755981939861 ], [ -61.125249334999978, 1.826327678939838 ], [ -61.125820405999939, 1.826327678939838 ], [ -61.126391476999963, 1.827089105939854 ], [ -61.127200493999958, 1.827422230939838 ], [ -61.128485402999956, 1.826470445939837 ], [ -61.129199239999934, 1.826280089939877 ], [ -61.129960668999956, 1.826755981939861 ], [ -61.13072209599995, 1.826280089939877 ], [ -61.131245576999959, 1.826184911939847 ], [ -61.131388344999948, 1.825566251939882 ], [ -61.131578701999963, 1.824900002939892 ], [ -61.132578074999962, 1.824614466939923 ], [ -61.134689846999947, 1.824941642939899 ], [ -61.136545826999971, 1.823710271939921 ], [ -61.13998414799994, 1.820837071940065 ], [ -61.141084647999953, 1.820152977940078 ], [ -61.142244636, 1.819290422940078 ], [ -61.14336453399995, 1.81841564194012 ], [ -61.145760288999959, 1.81671465694016 ], [ -61.148044571999947, 1.814097248940255 ], [ -61.149852962999951, 1.807434757940489 ], [ -61.151566173999989, 1.802675836940625 ], [ -61.152422779999938, 1.80034396494069 ], [ -61.135433427999949, 1.794871203940904 ], [ -61.134862357999964, 1.79701271894084 ], [ -61.133577448999972, 1.79948735894076 ], [ -61.131673879999937, 1.802628246940618 ], [ -61.129294418999962, 1.806578151940503 ], [ -61.128723349, 1.808005829940481 ], [ -61.128485402999956, 1.80995698694037 ], [ -61.128247455999947, 1.812193679940338 ], [ -61.127343260999957, 1.814097248940255 ], [ -61.126391476999963, 1.816048406940189 ], [ -61.126058351999973, 1.817999565940107 ], [ -61.12444031899998, 1.820141079940053 ], [ -61.123107819999966, 1.821473577940021 ], [ -61.122869874999942, 1.822139827939997 ], [ -61.122346392999987, 1.822710897939952 ], [ -61.121251840999953, 1.824995180939875 ], [ -61.119776574999946, 1.827327052939812 ] ] ] } },
{ "type": "Feature", "properties": { "num_setor": "RR_BOAVIST_SR_21_CPRM", "munic": "BOA VISTA", "grau_risco": "Muito alto", "distancia_km": 0.97, "chuva_24h": 0.1, "chuva_72h": 3.0, "fonte_estacao": "openmeteo", "codigo_estacao": "openmeteo", "nome_estacao": "Open-Meteo (célula de grade)" }, "geometry": { "type": "Polygon", "coordinates": [ [ [ -60.748608468999976, 2.813191719907387 ], [ -60.748489495999934, 2.81365571490739 ], [ -60.748792876999971, 2.81384012290738 ], [ -60.748798824999938, 2.814167298907412 ], [ -60.748798824999938, 2.814417142907399 ], [ -60.74883451699997, 2.814797856907346 ], [ -60.748929695999941, 2.814928726907366 ], [ -60.748941592999977, 2.815125031907336 ], [ -60.748935643999971, 2.815357029907333 ], [ -60.748929695999941, 2.81555928390737 ], [ -60.749090308999932, 2.815571180907348 ], [ -60.749393690999973, 2.815416515907323 ], [ -60.749482920999988, 2.815309440907373 ], [ -60.749512663999951, 2.815142877907387 ], [ -60.749310409999964, 2.815101237907376 ], [ -60.749304460999944, 2.814904931907366 ], [ -60.749328255999956, 2.814619396907383 ], [ -60.74939963899994, 2.814446885907371 ], [ -60.749459125999977, 2.814208939907406 ], [ -60.749488868999954, 2.814036428907397 ], [ -60.749524560999987, 2.813780636907385 ], [ -60.749625687999988, 2.813560536907414 ], [ -60.749685174999968, 2.813423717907389 ], [ -60.749796777999968, 2.813260758907425 ], [ -60.749792249999985, 2.813191719907387 ], [ -60.749530509999943, 2.813120336907416 ], [ -60.749298511999939, 2.813072746907403 ], [ -60.748882106999986, 2.813048952907395 ], [ -60.748608468999976, 2.813191719907387 ] ] ] } },
{ "type": "Feature", "properties": { "num_setor": "RR_BOAVIST_SR_22_CPRM", "munic": "BOA VISTA", "grau_risco": "Muito alto", "distancia_km": 1.04, "chuva_24h": 0.2, "chuva_72h": 2.6, "fonte_estacao": "openmeteo", "codigo_estacao": "openmeteo", "nome_estacao": "Open-Meteo (célula de grade)" }, "geometry": { "type": "Polygon", "coordinates": [ [ [ -60.751577917999946, 2.800297370907849 ], [ -60.751560641999959, 2.800365037907839 ], [ -60.751554882999976, 2.800523407907846 ], [ -60.751523208999977, 2.800727847907844 ], [ -60.751566400999941, 2.800791195907816 ], [ -60.751661421999977, 2.800785436907835 ], [ -60.75169741499996, 2.800709131907844 ], [ -60.751703173999942, 2.800401030907823 ], [ -60.751691656999988, 2.80029305190782 ], [ -60.751600953999976, 2.800264256907832 ], [ -60.751577917999946, 2.800297370907849 ] ] ] } },
{ "type": "Feature", "properties": { "num_setor": "RR_PACARAI_SR_2_CPRM", "munic": "PACARAIMA", "grau_risco": "Alto", "distancia_km": 1.69, "chuva_24h": 3.8, "chuva_72h": 6.6, "fonte_estacao": "openmeteo", "codigo_estacao": "openmeteo", "nome_estacao": "Open-Meteo (célula de grade)" }, "geometry": { "type": "Polygon", "coordinates": [ [ [ -61.145948387999972, 4.472951355853146 ], [ -61.145966369999933, 4.47295809885312 ], [ -61.145981899999981, 4.472966013853148 ], [ -61.145996651999951, 4.472976354853155 ], [ -61.146010782999952, 4.472989227853155 ], [ -61.146024580999956, 4.47300489185314 ], [ -61.146044416999985, 4.473032838853121 ], [ -61.146087997999977, 4.47310584785312 ], [ -61.146109335999938, 4.473136806853136 ], [ -61.146185539999969, 4.473224067853108 ], [ -61.146207178999987, 4.473250666853126 ], [ -61.146229584999958, 4.473283800853106 ], [ -61.146245154, 4.473315514853092 ], [ -61.146253254, 4.47333944685313 ], [ -61.146260065999968, 4.473367048853115 ], [ -61.146273746999952, 4.47345133285314 ], [ -61.146277076999979, 4.473481228853135 ], [ -61.146281734999945, 4.47355597285309 ], [ -61.146288043999959, 4.473594298853131 ], [ -61.146299212999963, 4.473630465853091 ], [ -61.146314853999968, 4.473667030853106 ], [ -61.146334961999962, 4.473703983853113 ], [ -61.146359530999966, 4.473741313853106 ], [ -61.146388529999967, 4.473778984853078 ], [ -61.146421989999965, 4.473817039853084 ], [ -61.146459929999935, 4.473855506853106 ], [ -61.146502492999957, 4.473894527853121 ], [ -61.146537487999979, 4.473923581853105 ], [ -61.14657327499998, 4.473950158853075 ], [ -61.146609380999955, 4.473973908853101 ], [ -61.146645459999952, 4.473994603853093 ], [ -61.146684764999982, 4.474014347853073 ], [ -61.146721249999977, 4.47403027085311 ], [ -61.146755715999973, 4.474042722853075 ], [ -61.146788425999944, 4.474051790853064 ], [ -61.14684465299996, 4.474061317853097 ], [ -61.146903307999935, 4.474064542853105 ], [ -61.146961688999966, 4.47406131885309 ], [ -61.147017171999941, 4.474051790853064 ], [ -61.147061468999929, 4.474038400853075 ], [ -61.147108123999942, 4.474018577853076 ], [ -61.147157373999953, 4.473992234853073 ], [ -61.147210175999987, 4.473958862853118 ], [ -61.147245760999965, 4.473930511853085 ], [ -61.147327171999962, 4.47384895185308 ], [ -61.147347843999974, 4.473830676853076 ], [ -61.147367438999936, 4.473815896853118 ], [ -61.14738995099998, 4.473802432853113 ], [ -61.147416953999929, 4.473789933853078 ], [ -61.147510927, 4.47375669385309 ], [ -61.147543568999936, 4.47374324685313 ], [ -61.147572899999943, 4.473727057853122 ], [ -61.147596184999941, 4.473708671853101 ], [ -61.147625606999952, 4.473675710853115 ], [ -61.147653417999955, 4.47363472885309 ], [ -61.147679450999988, 4.473585961853135 ], [ -61.147703408999966, 4.473529963853085 ], [ -61.14771502699994, 4.473493553853134 ], [ -61.147723012999961, 4.473454204853119 ], [ -61.147727443999941, 4.4734115718531 ], [ -61.147728393999948, 4.473364953853105 ], [ -61.147726409999962, 4.473320249853096 ], [ -61.147721718999954, 4.473269784853141 ], [ -61.147696261999961, 4.473079619853098 ], [ -61.147688667999944, 4.473022197853102 ], [ -61.14767803999996, 4.472958638853155 ], [ -61.147639074999972, 4.472765094853145 ], [ -61.147611388999962, 4.472637117853111 ], [ -61.147546146999957, 4.472357640853134 ], [ -61.147503902999965, 4.472140115853158 ], [ -61.147490072999972, 4.472084610853178 ], [ -61.147474662999969, 4.472035966853181 ], [ -61.147454872999958, 4.471986152853158 ], [ -61.147429357999954, 4.471931790853143 ], [ -61.147331696999963, 4.471750034853194 ], [ -61.147228939999941, 4.471569151853159 ], [ -61.147206591999968, 4.471525543853156 ], [ -61.147188730999972, 4.471485546853168 ], [ -61.147176800999937, 4.47145294585319 ], [ -61.147165853999986, 4.471415581853154 ], [ -61.147127471999966, 4.471253521853178 ], [ -61.147115864999925, 4.471217242853214 ], [ -61.147102950999965, 4.47118531785318 ], [ -61.147089014999942, 4.471151535853175 ], [ -61.147046278999937, 4.471036791853211 ], [ -61.147030464999943, 4.47100258685319 ], [ -61.147014443999971, 4.470974895853172 ], [ -61.146994510999946, 4.470949254853196 ], [ -61.146973019999969, 4.470930652853187 ], [ -61.146949657999983, 4.470918823853175 ], [ -61.146924243999926, 4.470913681853208 ], [ -61.146911709999976, 4.470913210853186 ], [ -61.146890963999958, 4.470910775853191 ], [ -61.146871212999947, 4.470905801853213 ], [ -61.146852411999987, 4.470898279853175 ], [ -61.146834509999955, 4.4708881888532 ], [ -61.146817466999948, 4.470875514853198 ], [ -61.146801188999966, 4.470860190853193 ], [ -61.146785589999979, 4.470842141853186 ], [ -61.146770555999979, 4.470821234853225 ], [ -61.146747581999932, 4.47078183485318 ], [ -61.146724664999965, 4.470733036853217 ], [ -61.146660216, 4.470565307853219 ], [ -61.146637313999975, 4.470510801853193 ], [ -61.146615008999966, 4.470466211853239 ], [ -61.146592247999934, 4.470429636853217 ], [ -61.146529871, 4.470343640853224 ], [ -61.146366376999929, 4.470127800853223 ], [ -61.146292910999932, 4.470026957853237 ], [ -61.146219564999967, 4.469918468853231 ], [ -61.146141726999986, 4.469794664853237 ], [ -61.146070627999954, 4.469675630853218 ], [ -61.145909823999943, 4.469399832853264 ], [ -61.145831930999975, 4.469271040853275 ], [ -61.145761784999934, 4.469161488853247 ], [ -61.145694636999963, 4.46906370685324 ], [ -61.145614838999968, 4.468957211853233 ], [ -61.145520980999947, 4.468841875853268 ], [ -61.145428671999987, 4.46873461485329 ], [ -61.145209729999983, 4.468486646853247 ], [ -61.145106012999968, 4.468364189853275 ], [ -61.14501596599996, 4.468250170853259 ], [ -61.144938931999945, 4.468143118853287 ], [ -61.144864501999955, 4.468031893853278 ], [ -61.144793592999974, 4.467921731853284 ], [ -61.144726164999945, 4.467812574853284 ], [ -61.144662194999974, 4.467704380853287 ], [ -61.144601655999963, 4.467597104853296 ], [ -61.144544537999934, 4.467490729853326 ], [ -61.144490829999931, 4.467385233853321 ], [ -61.14444052299995, 4.467280599853306 ], [ -61.144410958999963, 4.467214887853324 ], [ -61.144381833999944, 4.467145429853347 ], [ -61.144323421999957, 4.466991685853309 ], [ -61.144272028999978, 4.466842044853302 ], [ -61.144152455999972, 4.466476293853368 ], [ -61.144118115999952, 4.466377565853363 ], [ -61.144085459999978, 4.466289255853343 ], [ -61.144059344999967, 4.466213757853337 ], [ -61.144034183999956, 4.466125934853343 ], [ -61.14401293099997, 4.46604033185334 ], [ -61.143966222999957, 4.465838419853385 ], [ -61.143941518999945, 4.465742811853348 ], [ -61.143916372999968, 4.465660283853341 ], [ -61.143889818999973, 4.465588247853393 ], [ -61.143869906999953, 4.465542721853386 ], [ -61.143848699999985, 4.465500755853363 ], [ -61.143826044999962, 4.465462051853351 ], [ -61.143801832999948, 4.465426424853362 ], [ -61.143775926999979, 4.465393682853389 ], [ -61.143748276999986, 4.46536377385336 ], [ -61.14371880799996, 4.465336618853356 ], [ -61.143687455999952, 4.465312157853406 ], [ -61.143662388999978, 4.465299266853365 ], [ -61.143592524, 4.465275218853367 ], [ -61.143567853999969, 4.465263937853356 ], [ -61.143558632999941, 4.465256881853398 ], [ -61.143553936999972, 4.46524957785339 ], [ -61.143553664999956, 4.465241861853361 ], [ -61.143557818999959, 4.465233644853406 ], [ -61.143561014999939, 4.465229670853365 ], [ -61.14357212699997, 4.46521033185336 ], [ -61.143576673999974, 4.465189133853404 ], [ -61.143574711999975, 4.465165855853393 ], [ -61.143566204999956, 4.465140030853375 ], [ -61.143556287999957, 4.465120136853379 ], [ -61.143542760999928, 4.465097998853358 ], [ -61.143464869999939, 4.4649915588534 ], [ -61.143448775999957, 4.464966320853366 ], [ -61.143437283999958, 4.46494413585339 ], [ -61.143402667999972, 4.464861118853377 ], [ -61.143327560999978, 4.464665446853425 ], [ -61.143288607999985, 4.46457578985338 ], [ -61.143263003999941, 4.464525057853402 ], [ -61.143236728999959, 4.464479641853434 ], [ -61.143209258999953, 4.464438636853413 ], [ -61.143180301999955, 4.464401618853418 ], [ -61.143148143999952, 4.46436596985344 ], [ -61.143112330999948, 4.464330593853409 ], [ -61.143072704999952, 4.464295333853409 ], [ -61.14302897999994, 4.464259935853441 ], [ -61.142981542999962, 4.464224634853416 ], [ -61.142928910999956, 4.464188259853437 ], [ -61.142799587999946, 4.464106565853422 ], [ -61.142744512999968, 4.46407446385339 ], [ -61.142687196999987, 4.464043569853431 ], [ -61.142627760999979, 4.464013948853424 ], [ -61.142566354999985, 4.463985676853412 ], [ -61.14250310999995, 4.463958816853424 ], [ -61.142438258999952, 4.463933466853434 ], [ -61.142372020999971, 4.46390971485343 ], [ -61.142304659999979, 4.463887654853441 ], [ -61.142195750999981, 4.463856929853402 ], [ -61.142082523999932, 4.463831413853407 ], [ -61.14196542499996, 4.463811209853456 ], [ -61.141845003999947, 4.463796411853404 ], [ -61.141721740999969, 4.463787088853429 ], [ -61.141596490999973, 4.463783315853427 ], [ -61.141470052999971, 4.46378511485345 ], [ -61.141343357999972, 4.463792476853411 ], [ -61.141288209999971, 4.463798256853448 ], [ -61.141227371999946, 4.463807281853439 ], [ -61.14098904999998, 4.463853018853432 ], [ -61.140886501999937, 4.4638686198534 ], [ -61.140810126999952, 4.463875083853432 ], [ -61.14072454899997, 4.463877466853408 ], [ -61.140641167999938, 4.463876501853441 ], [ -61.140433327999979, 4.463870321853425 ], [ -61.140322987999973, 4.463871185853441 ], [ -61.140266141, 4.46387440985345 ], [ -61.140213174999985, 4.463879753853437 ], [ -61.140163144, 4.463887316853435 ], [ -61.140115555999962, 4.463897172853397 ], [ -61.140053820999981, 4.463912867853402 ], [ -61.140007357999927, 4.463919494853405 ], [ -61.13995549599997, 4.463920339853452 ], [ -61.139896699999959, 4.463915669853439 ], [ -61.139774485999958, 4.463898930853451 ], [ -61.139722478999936, 4.46389367985345 ], [ -61.139668298999936, 4.463892518853445 ], [ -61.139620626999942, 4.463897172853397 ], [ -61.139558949999973, 4.463909581853421 ], [ -61.139496662999932, 4.463926128853448 ], [ -61.139434565, 4.463946598853427 ], [ -61.139373471999924, 4.463970724853398 ], [ -61.139314217999988, 4.463998173853415 ], [ -61.139257494999981, 4.464028617853418 ], [ -61.139203981999962, 4.464061693853439 ], [ -61.139154252999958, 4.464097047853413 ], [ -61.139108069999956, 4.464133715853411 ], [ -61.139065606999964, 4.464170384853414 ], [ -61.139027093999964, 4.464206857853439 ], [ -61.13899265699996, 4.464243011853418 ], [ -61.138962426999967, 4.464278703853401 ], [ -61.13893642499994, 4.464313903853421 ], [ -61.138914696999962, 4.464348544853427 ], [ -61.138897271999959, 4.464382582853392 ], [ -61.138882237999944, 4.464423314853394 ], [ -61.138872180999954, 4.464468162853402 ], [ -61.138866997999962, 4.464517554853398 ], [ -61.138866589999964, 4.46457239685339 ], [ -61.138869676999953, 4.464621072853403 ], [ -61.138875922999951, 4.46467612185342 ], [ -61.138906879999979, 4.464870205853407 ], [ -61.138916306999938, 4.46494413585339 ], [ -61.138926947999948, 4.465025730853369 ], [ -61.138943903999966, 4.465116204853408 ], [ -61.138963500999978, 4.465202402853369 ], [ -61.139014136999947, 4.465408289853357 ], [ -61.139036393999959, 4.465512965853386 ], [ -61.13905199199997, 4.465613799853354 ], [ -61.139056569999987, 4.465660555853364 ], [ -61.139059075999974, 4.465705562853347 ], [ -61.139058339999963, 4.465747823853377 ], [ -61.139053390999948, 4.465795370853387 ], [ -61.139045372999988, 4.465843902853383 ], [ -61.139020289999969, 4.465973399853363 ], [ -61.139014739999929, 4.466011661853339 ], [ -61.139011634999974, 4.466045609853341 ], [ -61.139010990999964, 4.466083832853336 ], [ -61.139013881999979, 4.466118810853364 ], [ -61.139020366999951, 4.466151237853371 ], [ -61.139030520999938, 4.466181455853377 ], [ -61.139042316999962, 4.466201027853356 ], [ -61.13907784699996, 4.466244181853324 ], [ -61.139089063999961, 4.466260548853329 ], [ -61.139092405999975, 4.466268479853352 ], [ -61.139092971999965, 4.466274858853369 ], [ -61.139090772999964, 4.466279834853318 ], [ -61.139085776999934, 4.466283465853349 ], [ -61.139069392999943, 4.466288299853324 ], [ -61.139047109999979, 4.466297577853322 ], [ -61.139028965999948, 4.466309720853371 ], [ -61.13901492399998, 4.466324750853357 ], [ -61.139004945999943, 4.466342710853332 ], [ -61.138999006999939, 4.466363621853373 ], [ -61.138997065999945, 4.466387591853347 ], [ -61.138999113999944, 4.466414731853324 ], [ -61.139005163999968, 4.466445228853337 ], [ -61.139020715999948, 4.466494773853361 ], [ -61.139044931999933, 4.466553191853341 ], [ -61.139079085999981, 4.466623654853318 ], [ -61.139158368999965, 4.46677468685334 ], [ -61.139189964999957, 4.466837948853307 ], [ -61.139217906999932, 4.46690148685331 ], [ -61.139235842999938, 4.466954095853325 ], [ -61.139320368999961, 4.467250490853339 ], [ -61.139402357999977, 4.467517929853298 ], [ -61.139484730999982, 4.467765925853277 ], [ -61.139568740999955, 4.467998184853299 ], [ -61.13968120699996, 4.468289308853294 ], [ -61.139729675999952, 4.468408586853289 ], [ -61.139776224999935, 4.468518463853281 ], [ -61.139822802999952, 4.46862339085327 ], [ -61.139869046999941, 4.468722395853252 ], [ -61.139915406999926, 4.468816436853261 ], [ -61.139962165999968, 4.468906088853243 ], [ -61.139980941999966, 4.46893883285325 ], [ -61.140002507999959, 4.468972299853289 ], [ -61.140054979999945, 4.469042858853278 ], [ -61.140115785999967, 4.469114412853264 ], [ -61.140241204999938, 4.469251739853267 ], [ -61.140291493999939, 4.469309012853245 ], [ -61.140340461999976, 4.469369956853227 ], [ -61.140379661999987, 4.469425944853264 ], [ -61.140400112999949, 4.469459726853266 ], [ -61.140417577999983, 4.469492819853221 ], [ -61.140432182999973, 4.469525464853259 ], [ -61.140444, 4.469557822853254 ], [ -61.140453088999948, 4.469590075853221 ], [ -61.140459461999967, 4.469622282853225 ], [ -61.14046313599993, 4.469654534853261 ], [ -61.140464118999944, 4.469686903853256 ], [ -61.140461420999941, 4.469711820853219 ], [ -61.140462985999932, 4.469722222853259 ], [ -61.140469595999939, 4.46972920785323 ], [ -61.140493968999976, 4.469739850853227 ], [ -61.140502683999948, 4.469746895853245 ], [ -61.140506907999971, 4.469753464853237 ], [ -61.140512533999981, 4.469753016853256 ], [ -61.140533751999953, 4.469752398853259 ], [ -61.140554932999983, 4.469753683853253 ], [ -61.140576123999956, 4.469756874853211 ], [ -61.140597383999939, 4.46976197985323 ], [ -61.140640346999987, 4.469777982853212 ], [ -61.140684703999973, 4.469802017853238 ], [ -61.140721771999942, 4.469827267853262 ], [ -61.140762225999936, 4.469859160853222 ], [ -61.140886697, 4.469969982853235 ], [ -61.140928602999971, 4.470005408853245 ], [ -61.140966049999975, 4.470033802853211 ], [ -61.141001, 4.470056604853203 ], [ -61.141057719999928, 4.470094660853251 ], [ -61.141121891999951, 4.470146023853208 ], [ -61.141183235999968, 4.470200459853229 ], [ -61.141327176999937, 4.470333878853228 ], [ -61.141396481999941, 4.470393794853225 ], [ -61.141457315999965, 4.470440190853188 ], [ -61.141512262999974, 4.47047485585323 ], [ -61.141548286999971, 4.470492816853196 ], [ -61.141582605999986, 4.470505724853226 ], [ -61.141586519999976, 4.470506670853228 ], [ -61.141615460999965, 4.47051366985322 ], [ -61.141647005999978, 4.470516688853185 ], [ -61.141677409999936, 4.470514786853231 ], [ -61.141706721999988, 4.470507950853218 ], [ -61.141735019999942, 4.470496162853233 ], [ -61.141762362999948, 4.470479396853238 ], [ -61.141773954999962, 4.470470824853224 ], [ -61.141797878999967, 4.470456135853219 ], [ -61.141822382999983, 4.470445884853222 ], [ -61.141847525999928, 4.470440044853191 ], [ -61.14187338499994, 4.470438599853181 ], [ -61.141900011999944, 4.470441534853182 ], [ -61.141927566999989, 4.470448858853205 ], [ -61.141956195999967, 4.470460607853214 ], [ -61.141986119999949, 4.470476873853206 ], [ -61.142036601999969, 4.470512051853223 ], [ -61.142093305999936, 4.470560451853189 ], [ -61.142147756999982, 4.470612748853218 ], [ -61.142283249999934, 4.470749422853185 ], [ -61.142354982999962, 4.470815259853207 ], [ -61.142390718999927, 4.470844090853211 ], [ -61.142424488999943, 4.470868153853218 ], [ -61.142456814999939, 4.470887822853202 ], [ -61.14248797799997, 4.470903263853222 ], [ -61.142549646999953, 4.470928957853203 ], [ -61.142614768999977, 4.470953763853204 ], [ -61.142683868999939, 4.470977882853196 ], [ -61.142757906999975, 4.471001649853203 ], [ -61.142918020999957, 4.471047693853197 ], [ -61.143157988, 4.471109938853175 ], [ -61.14342951899993, 4.471180310853206 ], [ -61.143588065999943, 4.471216433853176 ], [ -61.143664867999973, 4.471230886853188 ], [ -61.143737223999942, 4.471242079853162 ], [ -61.143806304999941, 4.471250191853208 ], [ -61.143872735999935, 4.471255293853198 ], [ -61.14390740999994, 4.471256192853187 ], [ -61.14394625299996, 4.47125522985319 ], [ -61.144079423999983, 4.471245688853201 ], [ -61.144130269999955, 4.471243560853188 ], [ -61.144181119999978, 4.471244734853165 ], [ -61.144226209999943, 4.471249999853197 ], [ -61.144265658999984, 4.47125914285319 ], [ -61.14430814299994, 4.471273634853182 ], [ -61.144355461999965, 4.471293970853156 ], [ -61.144453520999946, 4.471341624853169 ], [ -61.144496148999956, 4.471360800853196 ], [ -61.144541713999949, 4.471377814853173 ], [ -61.144583332999957, 4.471388887853168 ], [ -61.144631953999976, 4.471395137853181 ], [ -61.144687946999959, 4.471395188853154 ], [ -61.144742735999955, 4.47139063285319 ], [ -61.144873388999933, 4.471374809853179 ], [ -61.144937227999947, 4.471371398853147 ], [ -61.144967928999954, 4.471372469853193 ], [ -61.14499607099998, 4.471375705853198 ], [ -61.145022117999986, 4.471381160853198 ], [ -61.14504631899996, 4.471388887853168 ], [ -61.145074154, 4.471401125853181 ], [ -61.145102236999946, 4.471416758853157 ], [ -61.145130869999953, 4.47143595285316 ], [ -61.145160632999932, 4.471459093853199 ], [ -61.14520530999993, 4.471498866853164 ], [ -61.145316457999968, 4.471608622853193 ], [ -61.145368968999946, 4.471655853853189 ], [ -61.145420442999978, 4.47169703785318 ], [ -61.145444821999945, 4.471718615853154 ], [ -61.145470893999963, 4.471747093853146 ], [ -61.145494208999942, 4.471779671853149 ], [ -61.145515025999941, 4.471816696853183 ], [ -61.14553376899994, 4.471858921853146 ], [ -61.145547570999959, 4.471897047853187 ], [ -61.145561033999968, 4.471940958853168 ], [ -61.145612716999949, 4.472136167853125 ], [ -61.145627815999937, 4.472181727853173 ], [ -61.145643789999944, 4.472221519853171 ], [ -61.145668271999959, 4.472271515853142 ], [ -61.145699281999953, 4.472325638853178 ], [ -61.145734987999965, 4.472381672853127 ], [ -61.145838942999937, 4.472537099853164 ], [ -61.145868442999983, 4.472585632853145 ], [ -61.145892400999976, 4.472629747853121 ], [ -61.145916170999946, 4.47268170585315 ], [ -61.145933597999942, 4.472731341853123 ], [ -61.145945031999986, 4.472779658853109 ], [ -61.145948460999932, 4.472808985853161 ], [ -61.145950587999948, 4.472827181853147 ], [ -61.145948940999972, 4.47284895685314 ], [ -61.145937106999959, 4.47290105685314 ], [ -61.145934532999938, 4.472921934853125 ], [ -61.145935229999964, 4.472932014853109 ], [ -61.145937733999979, 4.472940179853108 ], [ -61.145942102999982, 4.472946603853146 ], [ -61.145948387999972, 4.472951355853146 ] ] ] } },
{ "type": "Feature", "properties": { "num_setor": "RR_PACARAI_SR_3_CPRM", "munic": "PACARAIMA", "grau_risco": "Alto", "distancia_km": 0.49, "chuva_24h": 3.8, "chuva_72h": 6.6, "fonte_estacao": "openmeteo", "codigo_estacao": "openmeteo", "nome_estacao": "Open-Meteo (célula de grade)" }, "geometry": { "type": "Polygon", "coordinates": [ [ [ -61.133967661999975, 4.476759743853004 ], [ -61.134159725999943, 4.476939804852983 ], [ -61.134283413999981, 4.477139550852992 ], [ -61.134651548999955, 4.477399344852974 ], [ -61.135200413999939, 4.477428974853004 ], [ -61.13580789599996, 4.477574066852968 ], [ -61.136248941999952, 4.477551266852954 ], [ -61.13653525899997, 4.47744433985297 ], [ -61.136631364999971, 4.477145539852982 ], [ -61.136644282999953, 4.476750831853004 ], [ -61.136706839999988, 4.475578730853038 ], [ -61.13679163099993, 4.475040663853073 ], [ -61.136757146999969, 4.474538177853078 ], [ -61.136364531999959, 4.474262055853084 ], [ -61.135804725999947, 4.474117087853109 ], [ -61.135145634999958, 4.474056824853099 ], [ -61.13485989399998, 4.473936477853098 ], [ -61.134514742999954, 4.473744208853131 ], [ -61.13422903299994, 4.473611899853093 ], [ -61.133979107999956, 4.473467720853082 ], [ -61.133740738999961, 4.473467112853093 ], [ -61.133562689999962, 4.473548689853093 ], [ -61.13351751699998, 4.473600406853111 ], [ -61.133349001999932, 4.47372355185308 ], [ -61.133044430999966, 4.473875837853082 ], [ -61.132806484999946, 4.473990051853081 ], [ -61.132530467999977, 4.474189926853095 ], [ -61.132359145999942, 4.474389800853062 ], [ -61.132273485999967, 4.474542086853061 ], [ -61.132168788999934, 4.474703889853078 ], [ -61.132111681999959, 4.47486569385309 ], [ -61.132216378999942, 4.475398692853048 ], [ -61.132374787999936, 4.475794716853036 ], [ -61.13240344299998, 4.475890722853007 ], [ -61.132415023999954, 4.475895304853035 ], [ -61.132425770999987, 4.475922173853044 ], [ -61.132597091999962, 4.476122048853004 ], [ -61.132739859999958, 4.476331440853042 ], [ -61.132873109999927, 4.476512279853032 ], [ -61.133168162999937, 4.476683601852998 ], [ -61.133501287999927, 4.476664565853027 ], [ -61.133796340999936, 4.476664565853027 ], [ -61.133967661999975, 4.476759743853004 ] ] ] } },
{ "type": "Feature", "properties": { "num_setor": "RR_PACARAI_SR_1_CPRM", "munic": "PACARAIMA", "grau_risco": "Alto", "distancia_km": 1.53, "chuva_24h": 3.8, "chuva_72h": 6.6, "fonte_estacao": "openmeteo", "codigo_estacao": "openmeteo", "nome_estacao": "Open-Meteo (célula de grade)" }, "geometry": { "type": "Polygon", "coordinates": [ [ [ -61.141586519999976, 4.470506670853228 ], [ -61.141578722999952, 4.47062362085323 ], [ -61.141532176999981, 4.470876913853178 ], [ -61.141531453999953, 4.471163997853204 ], [ -61.141554324999952, 4.471546835853205 ], [ -61.141601306, 4.471822077853179 ], [ -61.141564856999935, 4.47209710785318 ], [ -61.141552365999978, 4.472324351853146 ], [ -61.141563228999985, 4.472743044853163 ], [ -61.14151470999996, 4.473077854853121 ], [ -61.141478380999963, 4.473305037853105 ], [ -61.141477656999939, 4.473592120853085 ], [ -61.141512749999947, 4.473855371853116 ], [ -61.141667509999934, 4.473927535853122 ], [ -61.142096546999944, 4.473940587853115 ], [ -61.142694081999934, 4.473999782853118 ], [ -61.142709488999962, 4.474008460853089 ], [ -61.14285701599993, 4.474127433853066 ], [ -61.143071166999967, 4.474279719853069 ], [ -61.14337097899994, 4.47437013885307 ], [ -61.143727898999941, 4.474360620853108 ], [ -61.144170477999978, 4.474298755853091 ], [ -61.144560709999958, 4.474246406853108 ], [ -61.145036601999948, 4.474284478853098 ], [ -61.145445868999957, 4.474308272853118 ], [ -61.145712368999966, 4.474222612853093 ], [ -61.145718530999943, 4.474212929853065 ], [ -61.145931035999979, 4.473930073853116 ], [ -61.145948387999972, 4.472951355853146 ], [ -61.145942102999982, 4.472946603853146 ], [ -61.145937733999979, 4.472940179853108 ], [ -61.145935229999964, 4.472932014853109 ], [ -61.145934532999938, 4.472921934853125 ], [ -61.145937106999959, 4.47290105685314 ], [ -61.145948940999972, 4.47284895685314 ], [ -61.145950587999948, 4.472827181853147 ], [ -61.145948460999932, 4.472808985853161 ], [ -61.145945031999986, 4.472779658853109 ], [ -61.145933597999942, 4.472731341853123 ], [ -61.145916170999946, 4.47268170585315 ], [ -61.145892400999976, 4.472629747853121 ], [ -61.145868442999983, 4.472585632853145 ], [ -61.145838942999937, 4.472537099853164 ], [ -61.145734987999965, 4.472381672853127 ], [ -61.145699281999953, 4.472325638853178 ], [ -61.145668271999959, 4.472271515853142 ], [ -61.145643789999944, 4.472221519853171 ], [ -61.145627815999937, 4.472181727853173 ], [ -61.145612716999949, 4.472136167853125 ], [ -61.145561033999968, 4.471940958853168 ], [ -61.145547570999959, 4.471897047853187 ], [ -61.14553376899994, 4.471858921853146 ], [ -61.145515025999941, 4.471816696853183 ], [ -61.145494208999942, 4.471779671853149 ], [ -61.145470893999963, 4.471747093853146 ], [ -61.145444821999945, 4.471718615853154 ], [ -61.145420442999978, 4.47169703785318 ], [ -61.145368968999946, 4.471655853853189 ], [ -61.145316457999968, 4.471608622853193 ], [ -61.14520530999993, 4.471498866853164 ], [ -61.145160632999932, 4.471459093853199 ], [ -61.145130869999953, 4.47143595285316 ], [ -61.145102236999946, 4.471416758853157 ], [ -61.145074154, 4.471401125853181 ], [ -61.14504631899996, 4.471388887853168 ], [ -61.145022117999986, 4.471381160853198 ], [ -61.14499607099998, 4.471375705853198 ], [ -61.144967928999954, 4.471372469853193 ], [ -61.144937227999947, 4.471371398853147 ], [ -61.144873388999933, 4.471374809853179 ], [ -61.144742735999955, 4.47139063285319 ], [ -61.144687946999959, 4.471395188853154 ], [ -61.144631953999976, 4.471395137853181 ], [ -61.144583332999957, 4.471388887853168 ], [ -61.144541713999949, 4.471377814853173 ], [ -61.144496148999956, 4.471360800853196 ], [ -61.144453520999946, 4.471341624853169 ], [ -61.144355461999965, 4.471293970853156 ], [ -61.14430814299994, 4.471273634853182 ], [ -61.144265658999984, 4.47125914285319 ], [ -61.144226209999943, 4.471249999853197 ], [ -61.144181119999978, 4.471244734853165 ], [ -61.144130269999955, 4.471243560853188 ], [ -61.144079423999983, 4.471245688853201 ], [ -61.14394625299996, 4.47125522985319 ], [ -61.14390740999994, 4.471256192853187 ], [ -61.143872735999935, 4.471255293853198 ], [ -61.143806304999941, 4.471250191853208 ], [ -61.143737223999942, 4.471242079853162 ], [ -61.143664867999973, 4.471230886853188 ], [ -61.143588065999943, 4.471216433853176 ], [ -61.14342951899993, 4.471180310853206 ], [ -61.143157988, 4.471109938853175 ], [ -61.142918020999957, 4.471047693853197 ], [ -61.142757906999975, 4.471001649853203 ], [ -61.142683868999939, 4.470977882853196 ], [ -61.142614768999977, 4.470953763853204 ], [ -61.142549646999953, 4.470928957853203 ], [ -61.14248797799997, 4.470903263853222 ], [ -61.142456814999939, 4.470887822853202 ], [ -61.142424488999943, 4.470868153853218 ], [ -61.142390718999927, 4.470844090853211 ], [ -61.142354982999962, 4.470815259853207 ], [ -61.142283249999934, 4.470749422853185 ], [ -61.142147756999982, 4.470612748853218 ], [ -61.142093305999936, 4.470560451853189 ], [ -61.142036601999969, 4.470512051853223 ], [ -61.141986119999949, 4.470476873853206 ], [ -61.141956195999967, 4.470460607853214 ], [ -61.141927566999989, 4.470448858853205 ], [ -61.141900011999944, 4.470441534853182 ], [ -61.14187338499994, 4.470438599853181 ], [ -61.141847525999928, 4.470440044853191 ], [ -61.141822382999983, 4.470445884853222 ], [ -61.141797878999967, 4.470456135853219 ], [ -61.141773954999962, 4.470470824853224 ], [ -61.141762362999948, 4.470479396853238 ], [ -61.141735019999942, 4.470496162853233 ], [ -61.141706721999988, 4.470507950853218 ], [ -61.141677409999936, 4.470514786853231 ], [ -61.141647005999978, 4.470516688853185 ], [ -61.141615460999965, 4.47051366985322 ], [ -61.141586519999976, 4.470506670853228 ] ] ] } },
{ "type": "Feature", "properties": { "num_setor": "RR_PACARAI_SR_7_CPRM", "munic": "PACARAIMA", "grau_risco": "Muito alto", "distancia_km": 1.34, "chuva_24h": 3.8, "chuva_72h": 6.6, "fonte_estacao": "openmeteo", "codigo_estacao": "openmeteo", "nome_estacao": "Open-Meteo (célula de grade)" }, "geometry": { "type": "Polygon", "coordinates": [ [ [ -61.133598083999964, 4.487816044852641 ], [ -61.133377983999935, 4.488232450852631 ], [ -61.133333332999939, 4.488333333852641 ], [ -61.133352119999984, 4.488425734852594 ], [ -61.133358997999956, 4.488533408852643 ], [ -61.133394388999925, 4.48867704185263 ], [ -61.133437040999972, 4.488777629852634 ], [ -61.133486551999965, 4.488993069852609 ], [ -61.133564559999968, 4.489251644852574 ], [ -61.133656302999945, 4.489732743852572 ], [ -61.135561139999929, 4.489315104852609 ], [ -61.135614134999962, 4.489078778852626 ], [ -61.135561139999929, 4.488684547852606 ], [ -61.135427788999941, 4.488303335852641 ], [ -61.135156630999973, 4.487964761852637 ], [ -61.134621251999931, 4.487703019852626 ], [ -61.133888888999934, 4.487661379852621 ], [ -61.133598083999964, 4.487816044852641 ] ] ] } },
{ "type": "Feature", "properties": { "num_setor": "RR_BOAVIST_SR_14_CPRM", "munic": "BOA VISTA", "grau_risco": "Alto", "distancia_km": 2.05, "chuva_24h": 0.2, "chuva_72h": 2.5, "fonte_estacao": "openmeteo", "codigo_estacao": "openmeteo", "nome_estacao": "Open-Meteo (célula de grade)" }, "geometry": { "type": "Polygon", "coordinates": [ [ [ -60.669969828999967, 2.867715159905626 ], [ -60.669986484999981, 2.867760369905621 ], [ -60.670014443999946, 2.867766318905632 ], [ -60.670056678999977, 2.867737764905651 ], [ -60.670088206999935, 2.86768898590566 ], [ -60.670075467999943, 2.867675561905625 ], [ -60.670032884999955, 2.867630688905649 ], [ -60.669969828999967, 2.867715159905626 ] ] ] } },
{ "type": "Feature", "properties": { "num_setor": "RR_BOAVIST_SR_15_CPRM", "munic": "BOA VISTA", "grau_risco": "Muito alto", "distancia_km": 2.13, "chuva_24h": 0.2, "chuva_72h": 2.5, "fonte_estacao": "openmeteo", "codigo_estacao": "openmeteo", "nome_estacao": "Open-Meteo (célula de grade)" }, "geometry": { "type": "Polygon", "coordinates": [ [ [ -60.670676052999966, 2.867419868905647 ], [ -60.670731969999963, 2.867531584905635 ], [ -60.670755, 2.867667999905621 ], [ -60.670781462999976, 2.867760012905643 ], [ -60.67101179499997, 2.867758108905602 ], [ -60.671143140999959, 2.867636280905629 ], [ -60.671210621999926, 2.867511369905633 ], [ -60.671278667999957, 2.867347020905648 ], [ -60.671210819999935, 2.867279654905654 ], [ -60.671202151999978, 2.86726127790565 ], [ -60.671089840999961, 2.86728412090566 ], [ -60.671028414999967, 2.867321724905663 ], [ -60.670882351999978, 2.867299348905658 ], [ -60.670749102999935, 2.867286023905664 ], [ -60.670676052999966, 2.867419868905647 ] ] ] } },
{ "type": "Feature", "properties": { "num_setor": "RR_BOAVIST_SR_12_CPRM", "munic": "BOA VISTA", "grau_risco": "Muito alto", "distancia_km": 0.87, "chuva_24h": 0.2, "chuva_72h": 2.0, "fonte_estacao": "openmeteo", "codigo_estacao": "openmeteo", "nome_estacao": "Open-Meteo (célula de grade)" }, "geometry": { "type": "Polygon", "coordinates": [ [ [ -60.722013626999967, 2.85755492690594 ], [ -60.721985324999928, 2.857564283905946 ], [ -60.722005908999961, 2.857787054905978 ], [ -60.721986, 2.857843999905958 ], [ -60.722019336999949, 2.857891857905976 ], [ -60.722060739999954, 2.857897568905949 ], [ -60.722086437999963, 2.857883291905959 ], [ -60.722086757999939, 2.85787167090596 ], [ -60.722087674999955, 2.857838345905956 ], [ -60.722090345999959, 2.857805847905959 ], [ -60.722135247, 2.857632035905951 ], [ -60.722144186999969, 2.857597425905956 ], [ -60.722126424999935, 2.857559079905955 ], [ -60.72207680099995, 2.857544033905975 ], [ -60.722013626999967, 2.85755492690594 ] ] ] } },
{ "type": "Feature", "properties": { "num_setor": "RR_BOAVIST_SR_13_CPRM", "munic": "BOA VISTA", "grau_risco": "Muito alto", "distancia_km": 0.66, "chuva_24h": 0.2, "chuva_72h": 2.0, "fonte_estacao": "openmeteo", "codigo_estacao": "openmeteo", "nome_estacao": "Open-Meteo (célula de grade)" }, "geometry": { "type": "Polygon", "coordinates": [ [ [ -60.719298, 2.85746699990596 ], [ -60.719367047999981, 2.857477193905988 ], [ -60.71955249399997, 2.857670964905977 ], [ -60.719695966999943, 2.857775584905974 ], [ -60.719863718999939, 2.857943336905955 ], [ -60.720049316999962, 2.857943336905955 ], [ -60.720270606999982, 2.857604263905944 ], [ -60.720373407999936, 2.857581735905957 ], [ -60.720359914999953, 2.85743539590595 ], [ -60.720236387999925, 2.857409142905965 ], [ -60.720134977999976, 2.857372266905998 ], [ -60.719863012999951, 2.857256938905946 ], [ -60.719814933999949, 2.857157113906006 ], [ -60.719795897999973, 2.856876337905999 ], [ -60.719664, 2.856810999905987 ], [ -60.71951988099994, 2.856790676905987 ], [ -60.719466442999988, 2.856841441906013 ], [ -60.719329523999924, 2.856971515905978 ], [ -60.719153443999971, 2.857176149905971 ], [ -60.718839354999943, 2.857014345905957 ], [ -60.718758452999964, 2.857057175905998 ], [ -60.718515747999959, 2.857023863905972 ], [ -60.718387256999961, 2.857095247905997 ], [ -60.718206417999966, 2.857038140905962 ], [ -60.717849498999954, 2.857509273905964 ], [ -60.717982749, 2.857599693905956 ], [ -60.718377738999941, 2.857699630905965 ], [ -60.718525265999972, 2.857328434905977 ], [ -60.718787006999946, 2.857309398905951 ], [ -60.719298, 2.85746699990596 ] ] ] } },
{ "type": "Feature", "properties": { "num_setor": "RR_BOAVIST_SR_19_CPRM", "munic": "BOA VISTA", "grau_risco": "Muito alto", "distancia_km": 1.8, "chuva_24h": 0.2, "chuva_72h": 2.0, "fonte_estacao": "openmeteo", "codigo_estacao": "openmeteo", "nome_estacao": "Open-Meteo (célula de grade)" }, "geometry": { "type": "Polygon", "coordinates": [ [ [ -60.697421969999937, 2.867784650905602 ], [ -60.697319659999955, 2.867901577905621 ], [ -60.697062677999952, 2.868137143905625 ], [ -60.696734311999933, 2.868422679905595 ], [ -60.696277455999969, 2.8686511079056 ], [ -60.696049027999955, 2.868758183905605 ], [ -60.696011612999939, 2.868829271905574 ], [ -60.696080913999943, 2.868956512905597 ], [ -60.696177517999956, 2.86901516590559 ], [ -60.696791418999958, 2.868779598905593 ], [ -60.697448150999953, 2.868329880905581 ], [ -60.697483842999986, 2.868279911905609 ], [ -60.697719408999944, 2.868008653905624 ], [ -60.697755100999984, 2.867844470905648 ], [ -60.697700403999939, 2.867804690905635 ], [ -60.697549540999937, 2.867754147905657 ], [ -60.697421969999937, 2.867784650905602 ] ] ] } },
{ "type": "Feature", "properties": { "num_setor": "RR_BOAVIST_SR_20_CPRM", "munic": "BOA VISTA", "grau_risco": "Muito alto", "distancia_km": 1.75, "chuva_24h": 0.2, "chuva_72h": 2.5, "fonte_estacao": "openmeteo", "codigo_estacao": "openmeteo", "nome_estacao": "Open-Meteo (célula de grade)" }, "geometry": { "type": "Polygon", "coordinates": [ [ [ -60.650004673999952, 2.867493978905665 ], [ -60.650010356999978, 2.867583766905625 ], [ -60.650079569999953, 2.867638999905632 ], [ -60.650632351999946, 2.867723625905625 ], [ -60.650683646999944, 2.867685651905613 ], [ -60.650689830999966, 2.867603200905648 ], [ -60.650652801999968, 2.867565973905641 ], [ -60.650085376999989, 2.867460043905625 ], [ -60.650004673999952, 2.867493978905665 ] ] ] } },
{ "type": "Feature", "properties": { "num_setor": "RR_BOAVIST_SR_16_CPRM", "munic": "BOA VISTA", "grau_risco": "Muito alto", "distancia_km": 1.84, "chuva_24h": 0.1, "chuva_72h": 1.8, "fonte_estacao": "openmeteo", "codigo_estacao": "openmeteo", "nome_estacao": "Open-Meteo (célula de grade)" }, "geometry": { "type": "Polygon", "coordinates": [ [ [ -60.666095810999941, 2.866083541905704 ], [ -60.66605914899997, 2.86612692590568 ], [ -60.666053180999938, 2.866168651905689 ], [ -60.666075514999939, 2.866200121905699 ], [ -60.66611385799996, 2.866220626905704 ], [ -60.666168704999961, 2.866213178905687 ], [ -60.666190721999946, 2.866190718905663 ], [ -60.666193710999949, 2.866163819905691 ], [ -60.666182921999962, 2.866124116905663 ], [ -60.666128144999959, 2.866079229905658 ], [ -60.666095810999941, 2.866083541905704 ] ] ] } },
{ "type": "Feature", "properties": { "num_setor": "RR_BOAVIST_SR_17_CPRM", "munic": "BOA VISTA", "grau_risco": "Muito alto", "distancia_km": 1.66, "chuva_24h": 0.1, "chuva_72h": 1.8, "fonte_estacao": "openmeteo", "codigo_estacao": "openmeteo", "nome_estacao": "Open-Meteo (célula de grade)" }, "geometry": { "type": "Polygon", "coordinates": [ [ [ -60.664311292999962, 2.865710406905696 ], [ -60.664415393999946, 2.865820456905682 ], [ -60.664549238999932, 2.865755021905672 ], [ -60.664650365999933, 2.86571338090568 ], [ -60.664675, 2.865652999905718 ], [ -60.664730672999958, 2.865546818905683 ], [ -60.664747294999977, 2.86552811290569 ], [ -60.664690938999968, 2.865471552905671 ], [ -60.664626570999985, 2.865460562905715 ], [ -60.664590836999935, 2.865458244905725 ], [ -60.664468509999942, 2.865407850905698 ], [ -60.664424316999948, 2.865368358905717 ], [ -60.664228011999974, 2.865299949905726 ], [ -60.664067397999986, 2.865091746905732 ], [ -60.66405480199996, 2.865086567905708 ], [ -60.663799708999939, 2.864981696905743 ], [ -60.663591505999932, 2.864886517905726 ], [ -60.663515594999971, 2.864972757905693 ], [ -60.66357365999994, 2.865076874905723 ], [ -60.663686683999977, 2.865136361905707 ], [ -60.663948424999944, 2.865219642905708 ], [ -60.66398709099996, 2.865371333905691 ], [ -60.663966270999936, 2.865380256905686 ], [ -60.663850271999927, 2.86550815290572 ], [ -60.663831173999938, 2.86559149090568 ], [ -60.663858457999929, 2.865641623905684 ], [ -60.663873545999934, 2.865638194905685 ], [ -60.664013859999955, 2.865606304905677 ], [ -60.664177447999975, 2.86558845890569 ], [ -60.664311292999962, 2.865710406905696 ] ] ] } },
{ "type": "Feature", "properties": { "num_setor": "RR_BOAVIST_SR_07_CPRM", "munic": "BOA VISTA", "grau_risco": "Muito alto", "distancia_km": 0.9, "chuva_24h": 0.2, "chuva_72h": 2.6, "fonte_estacao": "openmeteo", "codigo_estacao": "openmeteo", "nome_estacao": "Open-Meteo (célula de grade)" }, "geometry": { "type": "Polygon", "coordinates": [ [ [ -60.694828245999986, 2.763228156909082 ], [ -60.69505100799995, 2.76331251690904 ], [ -60.695092683999974, 2.76332829990907 ], [ -60.695826672999935, 2.761340679909113 ], [ -60.695584886999946, 2.761262144909122 ], [ -60.694828245999986, 2.763228156909082 ] ] ] } },
{ "type": "Feature", "properties": { "num_setor": "RR_BOAVIST_SR_08_CPRM", "munic": "BOA VISTA", "grau_risco": "Muito alto", "distancia_km": 1.26, "chuva_24h": 0.2, "chuva_72h": 2.6, "fonte_estacao": "openmeteo", "codigo_estacao": "openmeteo", "nome_estacao": "Open-Meteo (célula de grade)" }, "geometry": { "type": "Polygon", "coordinates": [ [ [ -60.696920238999958, 2.757242698909278 ], [ -60.696893588999956, 2.757315034909236 ], [ -60.696910720999938, 2.757368334909226 ], [ -60.696963817, 2.757376298909247 ], [ -60.697015326999967, 2.757384024909225 ], [ -60.697040226999945, 2.757384250909278 ], [ -60.697035337999985, 2.757249903909256 ], [ -60.696965181999985, 2.757204485909242 ], [ -60.696920238999958, 2.757242698909278 ] ] ] } },
{ "type": "Feature", "properties": { "num_setor": "RR_BOAVIST_SR_05_CPRM", "munic": "BOA VISTA", "grau_risco": "Muito alto", "distancia_km": 0.84, "chuva_24h": 0.2, "chuva_72h": 2.6, "fonte_estacao": "openmeteo", "codigo_estacao": "openmeteo", "nome_estacao": "Open-Meteo (célula de grade)" }, "geometry": { "type": "Polygon", "coordinates": [ [ [ -60.693743593999955, 2.767173646908932 ], [ -60.693886336999981, 2.767179728908904 ], [ -60.693891180999969, 2.767179934908944 ], [ -60.693898603999962, 2.767032573908928 ], [ -60.693737645999938, 2.767024402908936 ], [ -60.693743593999955, 2.767173646908932 ] ] ] } },
{ "type": "Feature", "properties": { "num_setor": "RR_BOAVIST_SR_06_CPRM", "munic": "BOA VISTA", "grau_risco": "Muito alto", "distancia_km": 0.81, "chuva_24h": 0.2, "chuva_72h": 2.6, "fonte_estacao": "openmeteo", "codigo_estacao": "openmeteo", "nome_estacao": "Open-Meteo (célula de grade)" }, "geometry": { "type": "Polygon", "coordinates": [ [ [ -60.694278493999946, 2.765406323908969 ], [ -60.694552607999988, 2.765415234908972 ], [ -60.694557869999976, 2.765265120908967 ], [ -60.694556606999981, 2.764775061909024 ], [ -60.69456254499994, 2.764586275909012 ], [ -60.694281254999964, 2.764562578908994 ], [ -60.694278493999946, 2.765406323908969 ] ] ] } },
{ "type": "Feature", "properties": { "num_setor": "RR_BOAVIST_SR_10_CPRM", "munic": "BOA VISTA", "grau_risco": "Muito alto", "distancia_km": 1.39, "chuva_24h": 0.2, "chuva_72h": 2.6, "fonte_estacao": "openmeteo", "codigo_estacao": "openmeteo", "nome_estacao": "Open-Meteo (célula de grade)" }, "geometry": { "type": "Polygon", "coordinates": [ [ [ -60.728292468999939, 2.76476370490902 ], [ -60.728017866999956, 2.764988603909007 ], [ -60.728071671999942, 2.765110247908992 ], [ -60.728125704999975, 2.765209391908974 ], [ -60.728232780999981, 2.765358108908976 ], [ -60.728310112999964, 2.765542516908962 ], [ -60.728348679999954, 2.765686671909006 ], [ -60.72838788599995, 2.765792285908951 ], [ -60.728463374999933, 2.765861191908967 ], [ -60.728583651999941, 2.766069170908943 ], [ -60.728714522999944, 2.766185169908941 ], [ -60.728779957999961, 2.766348756908964 ], [ -60.728836469999969, 2.766461781908923 ], [ -60.728919750999978, 2.766521267908981 ], [ -60.729053249999943, 2.76648687590895 ], [ -60.729074300999962, 2.766467885908948 ], [ -60.729059742999937, 2.766333290908933 ], [ -60.729023575999975, 2.766222744908959 ], [ -60.728772944999946, 2.765972663908981 ], [ -60.728578206999941, 2.765779177908986 ], [ -60.728479565999976, 2.765624327908988 ], [ -60.728422547999976, 2.765487072908964 ], [ -60.728398721999945, 2.765334113908982 ], [ -60.728468946999953, 2.765194426908985 ], [ -60.728604057999974, 2.765026986909011 ], [ -60.728661145999979, 2.764860589909025 ], [ -60.728778600999981, 2.764695257909035 ], [ -60.728895318999946, 2.764530962908997 ], [ -60.729192380999969, 2.76433966290902 ], [ -60.729245212999956, 2.764379304909008 ], [ -60.729470781999964, 2.764610712908988 ], [ -60.729857125999956, 2.764990841908984 ], [ -60.72992979899994, 2.765070448909013 ], [ -60.729978764999942, 2.765230559908967 ], [ -60.729956005999952, 2.765395782908967 ], [ -60.729917934999953, 2.765628969908955 ], [ -60.729888824999932, 2.765741448909002 ], [ -60.729816968999948, 2.765805777908999 ], [ -60.72977381599997, 2.765825234908948 ], [ -60.729603845999968, 2.765762219908984 ], [ -60.729442042999949, 2.76590498790897 ], [ -60.729304033999938, 2.765995406908967 ], [ -60.729274915999959, 2.766131490908981 ], [ -60.729302447999942, 2.766219076908989 ], [ -60.729398906999961, 2.766272234908938 ], [ -60.729578464999982, 2.766233353908975 ], [ -60.729854482999947, 2.766085826908955 ], [ -60.729963529999964, 2.765881139908955 ], [ -60.730224958999941, 2.765700056908989 ], [ -60.730239345999962, 2.765690091908987 ], [ -60.730420771999952, 2.765564424908971 ], [ -60.730459516999986, 2.765529251908956 ], [ -60.730373204999978, 2.765338675908996 ], [ -60.730254231999936, 2.765167354909014 ], [ -60.730087669999939, 2.764915131909013 ], [ -60.729935384, 2.764767605908978 ], [ -60.729740268999933, 2.764524900909039 ], [ -60.729635571999957, 2.764353578909021 ], [ -60.729416661999949, 2.764106114909042 ], [ -60.729281687999965, 2.764055425909009 ], [ -60.728292468999939, 2.76476370490902 ] ] ] } },
{ "type": "Feature", "properties": { "num_setor": "RR_BOAVIST_SR_11_CPRM", "munic": "BOA VISTA", "grau_risco": "Muito alto", "distancia_km": 1.55, "chuva_24h": 0.2, "chuva_72h": 2.6, "fonte_estacao": "openmeteo", "codigo_estacao": "openmeteo", "nome_estacao": "Open-Meteo (célula de grade)" }, "geometry": { "type": "Polygon", "coordinates": [ [ [ -60.73226073099994, 2.76510488590902 ], [ -60.732522471999971, 2.765252412908981 ], [ -60.73274614099995, 2.765119162909013 ], [ -60.732846078999962, 2.764971636908987 ], [ -60.732974569999953, 2.765009707908988 ], [ -60.733250587, 2.764714654909 ], [ -60.733393354999968, 2.764724172909008 ], [ -60.733526604999959, 2.764505261909021 ], [ -60.733607505999942, 2.764414842909026 ], [ -60.733571882999968, 2.764333303909017 ], [ -60.73353610799996, 2.764251418909038 ], [ -60.733398113999947, 2.764315380909048 ], [ -60.733155408999949, 2.764543809908991 ], [ -60.732996817999954, 2.764689183909038 ], [ -60.73298443, 2.764700539909001 ], [ -60.732812765999938, 2.764857897909015 ], [ -60.73238446299996, 2.765086326909009 ], [ -60.73212748199996, 2.764950696909025 ], [ -60.731984713999971, 2.764608054909018 ], [ -60.73212748199996, 2.764386764909013 ], [ -60.73235590999996, 2.764243996909027 ], [ -60.732669998999945, 2.764058398909004 ], [ -60.73286987299997, 2.763865662909034 ], [ -60.732958828999976, 2.763579489909035 ], [ -60.732855596999961, 2.76352492390902 ], [ -60.732723298999979, 2.763605825909057 ], [ -60.732428245999984, 2.763691486909069 ], [ -60.732249139999965, 2.763940677909028 ], [ -60.731988727999969, 2.764012272909037 ], [ -60.731945897999942, 2.764169317909009 ], [ -60.731909522999956, 2.76428635190903 ], [ -60.731762119999985, 2.764526594909032 ], [ -60.731732733999941, 2.764579855909036 ], [ -60.731646084999959, 2.76464045090901 ], [ -60.731684901999984, 2.764714654908993 ], [ -60.731818151999953, 2.764843145908993 ], [ -60.731984713999971, 2.765033502908992 ], [ -60.73226073099994, 2.76510488590902 ] ] ] } },
{ "type": "Feature", "properties": { "num_setor": "RR_BOAVIST_SR_09_CPRM", "munic": "BOA VISTA", "grau_risco": "Muito alto", "distancia_km": 1.85, "chuva_24h": 0.2, "chuva_72h": 2.6, "fonte_estacao": "openmeteo", "codigo_estacao": "openmeteo", "nome_estacao": "Open-Meteo (célula de grade)" }, "geometry": { "type": "Polygon", "coordinates": [ [ [ -60.699010760999954, 2.751476187909421 ], [ -60.699040742999948, 2.751475473909467 ], [ -60.699054696999944, 2.751461918909459 ], [ -60.699054218999947, 2.751398786909423 ], [ -60.699028130999977, 2.751363086909475 ], [ -60.698991086999968, 2.751342628909422 ], [ -60.698910781999984, 2.751344442909452 ], [ -60.698901543999966, 2.751357376909434 ], [ -60.698901543999966, 2.751406868909446 ], [ -60.698910109999986, 2.751455409909462 ], [ -60.698935798999969, 2.751468254909417 ], [ -60.698967275999962, 2.751466576909425 ], [ -60.699010760999954, 2.751476187909421 ] ] ] } },
{ "type": "Feature", "properties": { "num_setor": "RR_BOAVIST_SR_18_CPRM", "munic": "BOA VISTA", "grau_risco": "Muito alto", "distancia_km": 0.8, "chuva_24h": 0.9, "chuva_72h": 2.5, "fonte_estacao": "openmeteo", "codigo_estacao": "openmeteo", "nome_estacao": "Open-Meteo (célula de grade)" }, "geometry": { "type": "Polygon", "coordinates": [ [ [ -60.562892209999973, 3.2102103188944 ], [ -60.562877786999934, 3.210251265894404 ], [ -60.562878221999931, 3.210252805894375 ], [ -60.562902275999932, 3.210337918894389 ], [ -60.56297559099994, 3.210395075894397 ], [ -60.563038882999926, 3.210411074894371 ], [ -60.563104655999958, 3.210400713894404 ], [ -60.56312782599997, 3.210364646894408 ], [ -60.563130712999964, 3.210294521894376 ], [ -60.56311187599993, 3.210253316894374 ], [ -60.563104811999956, 3.210225061894414 ], [ -60.563063154999952, 3.210178207894406 ], [ -60.563013745999967, 3.210151257894407 ], [ -60.563009394999945, 3.210151056894428 ], [ -60.562962833999961, 3.210148905894377 ], [ -60.562892209999973, 3.2102103188944 ] ] ] } },
{ "type": "Feature", "properties": { "num_setor": "RR_BOAVIST_SR_03_CPRM", "munic": "BOA VISTA", "grau_risco": "Muito alto", "distancia_km": 2.19, "chuva_24h": 0.2, "chuva_72h": 2.6, "fonte_estacao": "openmeteo", "codigo_estacao": "openmeteo", "nome_estacao": "Open-Meteo (célula de grade)" }, "geometry": { "type": "Polygon", "coordinates": [ [ [ -60.703395579999949, 2.807272241907627 ], [ -60.703348807999987, 2.807356099907608 ], [ -60.70334042099995, 2.8074558779076 ], [ -60.70336836599995, 2.807481697907615 ], [ -60.703401980999956, 2.807507883907632 ], [ -60.703522804999977, 2.807536501907619 ], [ -60.703586580999975, 2.807559297907614 ], [ -60.703640285999938, 2.807576050907628 ], [ -60.703781937999963, 2.807580265907615 ], [ -60.703882470999979, 2.807582377907619 ], [ -60.704063542999954, 2.807567668907593 ], [ -60.704062473999954, 2.807556974907623 ], [ -60.704043707, 2.807369232907591 ], [ -60.704015817999959, 2.807252781907597 ], [ -60.703395579999949, 2.807272241907627 ] ] ] } },
{ "type": "Feature", "properties": { "num_setor": "RR_BOAVIST_SR_04_CPRM", "munic": "BOA VISTA", "grau_risco": "Alto", "distancia_km": 1.94, "chuva_24h": 0.2, "chuva_72h": 2.6, "fonte_estacao": "openmeteo", "codigo_estacao": "openmeteo", "nome_estacao": "Open-Meteo (célula de grade)" }, "geometry": { "type": "Polygon", "coordinates": [ [ [ -60.730765961999964, 2.801096942907832 ], [ -60.731157463999971, 2.801335961907815 ], [ -60.731644110999987, 2.801752186907779 ], [ -60.732320591999951, 2.802709255907782 ], [ -60.732783623999978, 2.803983484907735 ], [ -60.733743717999971, 2.805762718907645 ], [ -60.734047994999969, 2.805747588907635 ], [ -60.734247097999976, 2.805452090907689 ], [ -60.734318757999972, 2.805220699907697 ], [ -60.734351446999945, 2.804973945907713 ], [ -60.733914763999962, 2.804823960907715 ], [ -60.733857509999957, 2.804725902907721 ], [ -60.733546352999959, 2.80419298690769 ], [ -60.733248594999957, 2.803569978907717 ], [ -60.732513204999982, 2.802342533907771 ], [ -60.731645829999934, 2.800726608907818 ], [ -60.731293613999988, 2.800983278907804 ], [ -60.731117600999944, 2.801047899907842 ], [ -60.730494011999944, 2.800823846907834 ], [ -60.730150203999983, 2.800735988907816 ], [ -60.729765791999974, 2.80038316890783 ], [ -60.729373212, 2.800094416907823 ], [ -60.72890899399993, 2.799902505907829 ], [ -60.728654267999957, 2.800207955907862 ], [ -60.730054399999979, 2.800880083907803 ], [ -60.730765961999964, 2.801096942907832 ] ] ] } },
{ "type": "Feature", "properties": { "num_setor": "RR_BOAVIST_SR_02_CPRM", "munic": "BOA VISTA", "grau_risco": "Muito alto", "distancia_km": 1.89, "chuva_24h": 0.2, "chuva_72h": 2.6, "fonte_estacao": "openmeteo", "codigo_estacao": "openmeteo", "nome_estacao": "Open-Meteo (célula de grade)" }, "geometry": { "type": "Polygon", "coordinates": [ [ [ -60.700229569999983, 2.805361766907652 ], [ -60.700254160999968, 2.805342818907659 ], [ -60.700258174999988, 2.805339725907686 ], [ -60.70039689599998, 2.805232836907689 ], [ -60.700469156999986, 2.805180338907693 ], [ -60.700543440999972, 2.805015512907697 ], [ -60.700568, 2.804942999907679 ], [ -60.700516671999942, 2.804765669907697 ], [ -60.700332263999933, 2.804664542907706 ], [ -60.700162727999952, 2.804667516907695 ], [ -60.70003389, 2.804634921907702 ], [ -60.70000840199998, 2.804602983907691 ], [ -60.699462109999956, 2.803918445907743 ], [ -60.698859811999966, 2.803284238907741 ], [ -60.69862083899995, 2.803519899907711 ], [ -60.699039260999939, 2.80392144490775 ], [ -60.699380989999952, 2.804273831907697 ], [ -60.699559197999974, 2.804510045907727 ], [ -60.700229569999983, 2.805361766907652 ] ] ] } },
{ "type": "Feature", "properties": { "num_setor": "RR_BOAVIST_SR_01_CPRM", "munic": "BOA VISTA", "grau_risco": "Alto", "distancia_km": 1.96, "chuva_24h": 0.2, "chuva_72h": 2.0, "fonte_estacao": "openmeteo", "codigo_estacao": "openmeteo", "nome_estacao": "Open-Meteo (célula de grade)" }, "geometry": { "type": "Polygon", "coordinates": [ [ [ -60.673222574999961, 2.810940190907486 ], [ -60.673541612999941, 2.811280319907473 ], [ -60.673905904999963, 2.811634465907463 ], [ -60.673918744999987, 2.811646948907438 ], [ -60.673971875999939, 2.811595722907462 ], [ -60.674096760999987, 2.811475316907456 ], [ -60.673365769999975, 2.810757604907503 ], [ -60.673222574999961, 2.810940190907486 ] ] ] } },
{ "type": "Feature", "properties": { "num_setor": "RR_PACARAI_SR_8_CPRM", "munic": "PACARAIMA", "grau_risco": "Muito alto", "distancia_km": 1.03, "chuva_24h": 3.8, "chuva_72h": 6.6, "fonte_estacao": "openmeteo", "codigo_estacao": "openmeteo", "nome_estacao": "Open-Meteo (célula de grade)" }, "geometry": { "type": "Polygon", "coordinates": [ [ [ -61.133305426999975, 4.484741260852765 ], [ -61.132677232999981, 4.485314040852715 ], [ -61.132152377999944, 4.485938121852707 ], [ -61.131777750999952, 4.486833325852697 ], [ -61.131696894999948, 4.487122431852655 ], [ -61.131744483999967, 4.487217609852696 ], [ -61.134228640999936, 4.487112913852646 ], [ -61.134242141999955, 4.486657547852679 ], [ -61.13421891199993, 4.486418251852666 ], [ -61.134160016999935, 4.486142979852718 ], [ -61.134065669999984, 4.485747997852688 ], [ -61.133804704999932, 4.485256896852737 ], [ -61.133746477999985, 4.48471846485277 ], [ -61.133675421999953, 4.484538855852731 ], [ -61.133604000999981, 4.48450278785275 ], [ -61.133305426999975, 4.484741260852765 ] ] ] } }
]
}
