{
"type": "FeatureCollection",
"name": "setores_to",
"crs": { "type": "name", "properties": { "name": "urn:ogc:def:crs:OGC:1.3:CRS84" } },
"features": [
{ "type": "Feature", "properties": { "num_setor": "TO_SMT_SR_02_CPRM", "munic": "SÃO MIGUEL DO TOCANTINS", "grau_risco": "Alto", "distancia_km": 0.64, "chuva_24h": 0.4, "chuva_72h": 0.4, "fonte_estacao": "openmeteo", "codigo_estacao": "openmeteo", "nome_estacao": "Open-Meteo (célula de grade)" }, "geometry": { "type": "Polygon", "coordinates": [ [ [ -47.500192354999967, -5.540450208818384 ], [ -47.50024532499998, -5.539517472818382 ], [ -47.500370498999985, -5.53921745381838 ], [ -47.500482828999964, -5.539015499818413 ], [ -47.500692751999971, -5.538639002818434 ], [ -47.500799625999946, -5.538393305818417 ], [ -47.500851143999967, -5.53821703781846 ], [ -47.500928892999987, -5.537984120818461 ], [ -47.50097502899996, -5.537844412818458 ], [ -47.501021031999983, -5.537852188818476 ], [ -47.501713635999977, -5.538228605818452 ], [ -47.502209947, -5.538518351818404 ], [ -47.502344381999926, -5.53863050681841 ], [ -47.502371352999944, -5.53875146681841 ], [ -47.50237131899997, -5.538851923818439 ], [ -47.502250120999975, -5.539113073818404 ], [ -47.50212082499997, -5.539442531818408 ], [ -47.501917433999949, -5.54015254981838 ], [ -47.501387138999974, -5.540211282818387 ], [ -47.500981645999964, -5.540313163818362 ], [ -47.50084215399994, -5.540369965818377 ], [ -47.500814855999977, -5.540516326818394 ], [ -47.500192354999967, -5.540450208818384 ] ] ] } },
{ "type": "Feature", "properties": { "num_setor": "TO_SMT_SR_03_CPRM", "munic": "SÃO MIGUEL DO TOCANTINS", "grau_risco": "Muito alto", "distancia_km": 0.86, "chuva_24h": 0.4, "chuva_72h": 0.4, "fonte_estacao": "openmeteo", "codigo_estacao": "openmeteo", "nome_estacao": "Open-Meteo (célula de grade)" }, "geometry": { "type": "Polygon", "coordinates": [ [ [ -47.534807608999984, -5.549380575818099 ], [ -47.534757996999986, -5.549302798818108 ], [ -47.534763151999982, -5.549279077818061 ], [ -47.534780692999959, -5.549232640818079 ], [ -47.534897298999965, -5.548997896818078 ], [ -47.534935288999982, -5.548906813818103 ], [ -47.534996329999963, -5.548760586818098 ], [ -47.535034452999987, -5.548658914818133 ], [ -47.535091631999933, -5.548604582818076 ], [ -47.535107679999953, -5.54858933981813 ], [ -47.535188593999983, -5.548521632818106 ], [ -47.535250615999985, -5.548469978818106 ], [ -47.535300515999957, -5.548464359818126 ], [ -47.535360301999958, -5.548482426818112 ], [ -47.535399944999938, -5.548512063818119 ], [ -47.535414798999966, -5.548581362818076 ], [ -47.535378669999943, -5.548637358818093 ], [ -47.535310451999969, -5.548721905818119 ], [ -47.535228055999937, -5.548841417818084 ], [ -47.535149992999948, -5.548945396818096 ], [ -47.535064959999943, -5.549068595818063 ], [ -47.534929796999961, -5.549354115818083 ], [ -47.534891208999973, -5.5493794848181 ], [ -47.53484493499996, -5.549389583818055 ], [ -47.534807608999984, -5.549380575818099 ] ] ] } },
{ "type": "Feature", "properties": { "num_setor": "TO_PN_SR_01_CPRM", "munic": "PORTO NACIONAL", "grau_risco": "Alto", "distancia_km": 1.42, "chuva_24h": 0.0, "chuva_72h": 0.0, "fonte_estacao": "openmeteo", "codigo_estacao": "openmeteo", "nome_estacao": "Open-Meteo (célula de grade)" }, "geometry": { "type": "Polygon", "coordinates": [ [ [ -48.398443643999947, -10.702226854655168 ], [ -48.398636244999977, -10.70175725965521 ], [ -48.399618436999958, -10.701383884655185 ], [ -48.400260859999946, -10.701374165655196 ], [ -48.40098112499993, -10.701431715655193 ], [ -48.401572065999972, -10.701605281655196 ], [ -48.402148956999952, -10.701997322655185 ], [ -48.40234462799998, -10.702336461655177 ], [ -48.40187195999993, -10.702592591655193 ], [ -48.401522694999983, -10.702448862655203 ], [ -48.401222124999947, -10.70241757165517 ], [ -48.40075361199996, -10.702600186655197 ], [ -48.400304975999973, -10.702919118655155 ], [ -48.400297333999958, -10.702925520655146 ], [ -48.399809829999974, -10.703143084655164 ], [ -48.399423429999956, -10.703294554655162 ], [ -48.399034043999961, -10.703214870655142 ], [ -48.398734585999939, -10.702760270655141 ], [ -48.398443643999947, -10.702226854655168 ] ] ] } },
{ "type": "Feature", "properties": { "num_setor": "TO_SMT_SR_01_CPRM", "munic": "SÃO MIGUEL DO TOCANTINS", "grau_risco": "Alto", "distancia_km": 0.7, "chuva_24h": 0.4, "chuva_72h": 0.4, "fonte_estacao": "openmeteo", "codigo_estacao": "openmeteo", "nome_estacao": "Open-Meteo (célula de grade)" }, "geometry": { "type": "Polygon", "coordinates": [ [ [ -47.501900061999955, -5.545362696818231 ], [ -47.501800559999936, -5.545232299818212 ], [ -47.50165819799998, -5.545036162818232 ], [ -47.501472312999965, -5.54475386381825 ], [ -47.501083846999968, -5.544343346818229 ], [ -47.500503870999978, -5.544110195818267 ], [ -47.499992138999964, -5.543323632818267 ], [ -47.499881994999953, -5.543166239818279 ], [ -47.499797777999966, -5.5429649638183 ], [ -47.499760753999972, -5.542812656818296 ], [ -47.499755857999965, -5.542726677818294 ], [ -47.499760740999925, -5.542640789818297 ], [ -47.499789915999933, -5.542593291818281 ], [ -47.50061540399998, -5.542384800818322 ], [ -47.500692025999967, -5.542408665818325 ], [ -47.500730311999973, -5.542484955818311 ], [ -47.500749682999988, -5.542623588818308 ], [ -47.500909772999933, -5.543254142818286 ], [ -47.500996006999962, -5.54346615281826 ], [ -47.501134296999965, -5.543644126818249 ], [ -47.501354515999935, -5.543826851818249 ], [ -47.501451635999963, -5.543914319818251 ], [ -47.501543262999974, -5.544069047818225 ], [ -47.501696886999987, -5.544299898818247 ], [ -47.501758364999944, -5.54440113381823 ], [ -47.501855585999976, -5.544549077818215 ], [ -47.501939270999976, -5.544670609818247 ], [ -47.502288156999953, -5.545231104818232 ], [ -47.501991364999981, -5.545466045818198 ], [ -47.501900061999955, -5.545362696818231 ] ] ] } },
{ "type": "Feature", "properties": { "num_setor": "TO_XMB_SR_01_CPRM", "munic": "XAMBIOÁ", "grau_risco": "Alto", "distancia_km": 1.32, "chuva_24h": 0.3, "chuva_72h": 0.4, "fonte_estacao": "openmeteo", "codigo_estacao": "openmeteo", "nome_estacao": "Open-Meteo (célula de grade)" }, "geometry": { "type": "Polygon", "coordinates": [ [ [ -48.541019045999974, -6.410767024790267 ], [ -48.540913988999932, -6.41071904879031 ], [ -48.540710053999931, -6.41060266179032 ], [ -48.540592389999965, -6.410499547790309 ], [ -48.540500304999966, -6.410384155790316 ], [ -48.540473981999988, -6.410331862790304 ], [ -48.540419070999981, -6.410216414790339 ], [ -48.540396955999938, -6.410111554790321 ], [ -48.540381300999968, -6.410010511790294 ], [ -48.540363296999942, -6.4098823377903 ], [ -48.540354214999986, -6.409818024790305 ], [ -48.540233635999982, -6.409504916790318 ], [ -48.540241985999963, -6.409466756790341 ], [ -48.540289267999981, -6.409433925790347 ], [ -48.540357383999947, -6.40942527979032 ], [ -48.540518719999959, -6.409502122790304 ], [ -48.540709639999925, -6.409621568790341 ], [ -48.540826352999943, -6.409699232790346 ], [ -48.54095876599996, -6.409843884790296 ], [ -48.541104060999942, -6.409975342790291 ], [ -48.541167283999982, -6.410057845790337 ], [ -48.541277667999964, -6.410279767790312 ], [ -48.541302947999945, -6.410472396790327 ], [ -48.541293273999941, -6.410634624790287 ], [ -48.541242478999948, -6.410724227790281 ], [ -48.541189273999976, -6.410787288790265 ], [ -48.541019045999974, -6.410767024790267 ] ] ] } },
{ "type": "Feature", "properties": { "num_setor": "TO_AGN_SR_01_CPRM", "munic": "ARAGUANÃ", "grau_risco": "Alto", "distancia_km": 0.93, "chuva_24h": 0.5, "chuva_72h": 0.5, "fonte_estacao": "openmeteo", "codigo_estacao": "openmeteo", "nome_estacao": "Open-Meteo (célula de grade)" }, "geometry": { "type": "Polygon", "coordinates": [ [ [ -48.636343941999947, -6.576586198784976 ], [ -48.635972066999955, -6.573773671785063 ], [ -48.636830783999976, -6.57364793378506 ], [ -48.637640586999964, -6.57367466178508 ], [ -48.638538155999981, -6.573962697785039 ], [ -48.638691503999951, -6.574653487785043 ], [ -48.638895076999972, -6.575974960784961 ], [ -48.639309644999969, -6.578175463784925 ], [ -48.639530960999934, -6.579151148784857 ], [ -48.63969835499995, -6.580047228784843 ], [ -48.639766596999948, -6.581077304784817 ], [ -48.638920733999953, -6.581812365784796 ], [ -48.636074785999938, -6.582194178784773 ], [ -48.636343941999947, -6.576586198784976 ] ] ] } },
{ "type": "Feature", "properties": { "num_setor": "TO_PEIXE_SR_1_CPRM", "munic": "PEIXE", "grau_risco": "Alto", "distancia_km": 1.34, "chuva_24h": 0.0, "chuva_72h": 0.0, "fonte_estacao": "openmeteo", "codigo_estacao": "openmeteo", "nome_estacao": "Open-Meteo (célula de grade)" }, "geometry": { "type": "Polygon", "coordinates": [ [ [ -48.532508047999954, -12.023672327615024 ], [ -48.532389971999976, -12.023589185615041 ], [ -48.532467765999961, -12.02334062161504 ], [ -48.532589008999935, -12.022899359615021 ], [ -48.53269560199994, -12.022269240615039 ], [ -48.532864475999986, -12.021516886615073 ], [ -48.533044909999951, -12.020931385615105 ], [ -48.53314114799997, -12.020952452615083 ], [ -48.533116083999971, -12.021229124615058 ], [ -48.533064661999958, -12.021579614615062 ], [ -48.532995157999949, -12.021947529615078 ], [ -48.53297228699995, -12.022372762615053 ], [ -48.532821737999939, -12.022851743615057 ], [ -48.532781316999944, -12.023138729615045 ], [ -48.532690273999947, -12.023397332614994 ], [ -48.532558779999931, -12.023691186614995 ], [ -48.532508047999954, -12.023672327615024 ] ] ] } },
{ "type": "Feature", "properties": { "num_setor": "TO_ARAGUAI_SR_01_CPRM", "munic": "ARAGUAÍNA", "grau_risco": "Alto", "distancia_km": 1.64, "chuva_24h": 0.0, "chuva_72h": 0.0, "fonte_estacao": "openmeteo", "codigo_estacao": "openmeteo", "nome_estacao": "Open-Meteo (célula de grade)" }, "geometry": { "type": "Polygon", "coordinates": [ [ [ -48.191512330999949, -7.211327638764621 ], [ -48.191596944999951, -7.211533027764641 ], [ -48.191870813999977, -7.211880951764612 ], [ -48.192007942999965, -7.212212518764592 ], [ -48.191986740999937, -7.212334691764605 ], [ -48.191890267999952, -7.212373532764601 ], [ -48.191683884999975, -7.212332864764602 ], [ -48.191547346999975, -7.2120138237646 ], [ -48.191350254999975, -7.212087169764623 ], [ -48.19117477399994, -7.211848628764645 ], [ -48.190811538999974, -7.21198956876463 ], [ -48.190680260999954, -7.21156369676465 ], [ -48.190924883999962, -7.21146164476461 ], [ -48.190971598999965, -7.211583549764622 ], [ -48.191512330999949, -7.211327638764621 ] ] ] } },
{ "type": "Feature", "properties": { "num_setor": "TO_ARAGUAI_SR_02_CPRM", "munic": "ARAGUAÍNA", "grau_risco": "Alto", "distancia_km": 1.53, "chuva_24h": 0.0, "chuva_72h": 0.0, "fonte_estacao": "openmeteo", "codigo_estacao": "openmeteo", "nome_estacao": "Open-Meteo (célula de grade)" }, "geometry": { "type": "Polygon", "coordinates": [ [ [ -48.19717289099998, -7.217444631764458 ], [ -48.197741422999968, -7.217309138764445 ], [ -48.19769115899993, -7.217497107764462 ], [ -48.197715754999933, -7.217698020764415 ], [ -48.197764944999967, -7.217773681764449 ], [ -48.197360299999957, -7.217908345764415 ], [ -48.19717289099998, -7.217444631764458 ] ] ] } }
]
}
