{
"type": "FeatureCollection",
"name": "setores_df",
"crs": { "type": "name", "properties": { "name": "urn:ogc:def:crs:OGC:1.3:CRS84" } },
"features": [
{ "type": "Feature", "properties": { "num_setor": "DF_BRASILI_SR_004_CPRM", "munic": "BRASÍLIA", "grau_risco": "Alto", "distancia_km": 0.88, "chuva_24h": 0.0, "chuva_72h": 0.0, "fonte_estacao": "openmeteo", "codigo_estacao": "openmeteo", "nome_estacao": "Open-Meteo (célula de grade)" }, "geometry": { "type": "Polygon", "coordinates": [ [ [ -47.883230408999964, -15.591915887510867 ], [ -47.882908314999952, -15.591813635510832 ], [ -47.88288786499993, -15.591619356510863 ], [ -47.883057858999962, -15.591621913510879 ], [ -47.883189508999983, -15.591719052510872 ], [ -47.883276422999984, -15.591848145510868 ], [ -47.883230408999964, -15.591915887510867 ] ] ] } },
{ "type": "Feature", "properties": { "num_setor": "DF_BRASILI_SR_003_CPRM", "munic": "BRASÍLIA", "grau_risco": "Alto", "distancia_km": 1.76, "chuva_24h": 0.0, "chuva_72h": 0.0, "fonte_estacao": "openmeteo", "codigo_estacao": "openmeteo", "nome_estacao": "Open-Meteo (célula de grade)" }, "geometry": { "type": "Polygon", "coordinates": [ [ [ -48.052698067999984, -15.805420038504847 ], [ -48.052626490999955, -15.805512065504841 ], [ -48.052337628999958, -15.805604092504835 ], [ -48.051626976999955, -15.805790702504847 ], [ -48.051496604999954, -15.805598979504847 ], [ -48.052117786999986, -15.805248766504866 ], [ -48.052148462999988, -15.804998248504846 ], [ -48.051974633999976, -15.804722167504877 ], [ -48.051742009999948, -15.804331053504866 ], [ -48.051890275999938, -15.804162337504904 ], [ -48.052156131999936, -15.804106098504903 ], [ -48.05220981399998, -15.804180231504901 ], [ -48.052138236999951, -15.804210907504896 ], [ -48.052133124999955, -15.804308046504879 ], [ -48.052243045999951, -15.804384735504902 ], [ -48.052319734999969, -15.804770737504862 ], [ -48.052580477999982, -15.804821863504882 ], [ -48.05270573699994, -15.804998248504846 ], [ -48.052851445999977, -15.805021255504888 ], [ -48.052884677999941, -15.805118394504875 ], [ -48.052698067999984, -15.805420038504847 ] ] ] } },
{ "type": "Feature", "properties": { "num_setor": "DF_BRASILI_SR_016_CPRM", "munic": "BRASÍLIA", "grau_risco": "Alto", "distancia_km": 1.28, "chuva_24h": 0.0, "chuva_72h": 0.0, "fonte_estacao": "openmeteo", "codigo_estacao": "openmeteo", "nome_estacao": "Open-Meteo (célula de grade)" }, "geometry": { "type": "Polygon", "coordinates": [ [ [ -47.730544357999982, -15.649058024509232 ], [ -47.730823304999944, -15.648911459509266 ], [ -47.731296096999984, -15.648526922509276 ], [ -47.731337071999981, -15.648572625509285 ], [ -47.731430053999979, -15.648541105509292 ], [ -47.731455269999969, -15.648594688509238 ], [ -47.731486788999973, -15.648572625509285 ], [ -47.731691665999968, -15.648856300509269 ], [ -47.731855566999968, -15.649053296509253 ], [ -47.731905997999952, -15.649006017509262 ], [ -47.731921757999942, -15.649062752509247 ], [ -47.731883933999939, -15.649113183509227 ], [ -47.731808287999968, -15.649119487509237 ], [ -47.731735793, -15.649070632509256 ], [ -47.731636506999962, -15.648927219509263 ], [ -47.731417445999959, -15.648630936509267 ], [ -47.731263000999945, -15.64872864650923 ], [ -47.73123305799993, -15.648843692509246 ], [ -47.730887919999923, -15.649080088509233 ], [ -47.730640491999964, -15.649185678509262 ], [ -47.730544357999982, -15.649058024509232 ] ] ] } },
{ "type": "Feature", "properties": { "num_setor": "DF_BRASILI_SR_015_CPRM", "munic": "BRASÍLIA", "grau_risco": "Alto", "distancia_km": 1.56, "chuva_24h": 0.0, "chuva_72h": 0.0, "fonte_estacao": "openmeteo", "codigo_estacao": "openmeteo", "nome_estacao": "Open-Meteo (célula de grade)" }, "geometry": { "type": "Polygon", "coordinates": [ [ [ -47.847060967999937, -15.621684937510002 ], [ -47.84696956099998, -15.621606138510002 ], [ -47.846938041999977, -15.62146272451003 ], [ -47.846766260999971, -15.621043516510062 ], [ -47.846752076999962, -15.620859127510037 ], [ -47.846800931999951, -15.620737777510069 ], [ -47.846865546999936, -15.620733049510052 ], [ -47.846906521999983, -15.620810272510056 ], [ -47.846878154999956, -15.620882767510038 ], [ -47.846930161999978, -15.621068731510055 ], [ -47.847048359999974, -15.621335071510046 ], [ -47.847116126999929, -15.621557283510024 ], [ -47.847037327999935, -15.621599834509995 ], [ -47.847090910999952, -15.621658145510029 ], [ -47.847060967999937, -15.621684937510002 ] ] ] } },
{ "type": "Feature", "properties": { "num_setor": "DF_BRASILI_SR_006_CPRM", "munic": "BRASÍLIA", "grau_risco": "Alto", "distancia_km": 1.67, "chuva_24h": 0.0, "chuva_72h": 0.0, "fonte_estacao": "openmeteo", "codigo_estacao": "openmeteo", "nome_estacao": "Open-Meteo (célula de grade)" }, "geometry": { "type": "Polygon", "coordinates": [ [ [ -47.868094673999963, -15.603094815510547 ], [ -47.868140686999944, -15.603155208510556 ], [ -47.86818797899997, -15.603299639510523 ], [ -47.868157302999968, -15.603398056510519 ], [ -47.868070388999968, -15.60340316951056 ], [ -47.867784082999947, -15.603412116510533 ], [ -47.867752128999939, -15.602893187510537 ], [ -47.867624313999961, -15.602895743510562 ], [ -47.867628147999937, -15.602804994510524 ], [ -47.867643485999963, -15.602803716510573 ], [ -47.867648598999949, -15.602714245510551 ], [ -47.867759797999945, -15.602709133510553 ], [ -47.867768744999978, -15.602642669510571 ], [ -47.867780247999967, -15.602568536510569 ], [ -47.86794129499998, -15.602495681510534 ], [ -47.867943851999939, -15.602325687510564 ], [ -47.867993699999943, -15.602325687510564 ], [ -47.868010315999982, -15.602202985510568 ], [ -47.868199481999966, -15.602182215510579 ], [ -47.868118957999968, -15.602564382510568 ], [ -47.868067831999952, -15.602616786510534 ], [ -47.868038434999967, -15.602771443510525 ], [ -47.868094673999963, -15.603094815510547 ] ] ] } },
{ "type": "Feature", "properties": { "num_setor": "DF_BRASILI_SR_005_CPRM", "munic": "BRASÍLIA", "grau_risco": "Alto", "distancia_km": 0.84, "chuva_24h": 0.0, "chuva_72h": 0.0, "fonte_estacao": "openmeteo", "codigo_estacao": "openmeteo", "nome_estacao": "Open-Meteo (célula de grade)" }, "geometry": { "type": "Polygon", "coordinates": [ [ [ -47.883863093999935, -15.592672553510818 ], [ -47.88378129299997, -15.592682778510859 ], [ -47.883709715999942, -15.59254090451085 ], [ -47.88367776299998, -15.59241692351085 ], [ -47.88368031899995, -15.59215745851086 ], [ -47.883773623999957, -15.592158736510878 ], [ -47.883782571, -15.592340234510838 ], [ -47.883863093999935, -15.592672553510818 ] ] ] } },
{ "type": "Feature", "properties": { "num_setor": "DF_BRASILI_SR_007_CPRM", "munic": "BRASÍLIA", "grau_risco": "Alto", "distancia_km": 1.86, "chuva_24h": 0.0, "chuva_72h": 0.0, "fonte_estacao": "openmeteo", "codigo_estacao": "openmeteo", "nome_estacao": "Open-Meteo (célula de grade)" }, "geometry": { "type": "Polygon", "coordinates": [ [ [ -47.848634211999979, -15.571607771511411 ], [ -47.848483389999956, -15.571474843511449 ], [ -47.848567747999944, -15.57135214051147 ], [ -47.848695562999978, -15.571284398511466 ], [ -47.848795258999985, -15.571168086511426 ], [ -47.848887285999972, -15.571131020511425 ], [ -47.849006153999937, -15.571141245511456 ], [ -47.849102014999971, -15.571228160511451 ], [ -47.849116074999984, -15.571315074511459 ], [ -47.849098180999931, -15.571394319511453 ], [ -47.849067504999937, -15.571442889511447 ], [ -47.849003597999967, -15.571401988511463 ], [ -47.849015100999956, -15.571306127511436 ], [ -47.848993371999939, -15.571242219511424 ], [ -47.848879616999966, -15.571253723511463 ], [ -47.84881954399998, -15.571385372511427 ], [ -47.848634211999979, -15.571607771511411 ] ] ] } },
{ "type": "Feature", "properties": { "num_setor": "DF_BRASILI_SR_010_CPRM", "munic": "BRASÍLIA", "grau_risco": "Alto", "distancia_km": 1.95, "chuva_24h": 0.0, "chuva_72h": 0.0, "fonte_estacao": "openmeteo", "codigo_estacao": "openmeteo", "nome_estacao": "Open-Meteo (célula de grade)" }, "geometry": { "type": "Polygon", "coordinates": [ [ [ -47.96170443699998, -15.871298942502996 ], [ -47.961116225999952, -15.871800811502979 ], [ -47.960796036999966, -15.871493214502971 ], [ -47.960970521999968, -15.871322327503016 ], [ -47.961265526999973, -15.870939180502988 ], [ -47.96141302999996, -15.870638778503013 ], [ -47.961555135999966, -15.870636980503036 ], [ -47.961713430999957, -15.870741311503021 ], [ -47.961686448999956, -15.870881618503002 ], [ -47.961772791999984, -15.870978754503017 ], [ -47.961994045999973, -15.871235984502995 ], [ -47.961821359999931, -15.871405072503006 ], [ -47.96170443699998, -15.871298942502996 ] ] ] } },
{ "type": "Feature", "properties": { "num_setor": "DF_BRASILI_SR_008_CPRM", "munic": "BRASÍLIA", "grau_risco": "Alto", "distancia_km": 0.73, "chuva_24h": 0.0, "chuva_72h": 0.0, "fonte_estacao": "openmeteo", "codigo_estacao": "openmeteo", "nome_estacao": "Open-Meteo (célula de grade)" }, "geometry": { "type": "Polygon", "coordinates": [ [ [ -48.015626639999937, -15.857960131503388 ], [ -48.015432360999966, -15.85776968650341 ], [ -48.015348002999986, -15.857722395503368 ], [ -48.015248306999979, -15.857694275503393 ], [ -48.015062974999978, -15.857519169503369 ], [ -48.015368452999951, -15.857287823503416 ], [ -48.01553077899996, -15.857429698503406 ], [ -48.015500102999965, -15.857567738503366 ], [ -48.015773627999977, -15.857816978503381 ], [ -48.015626639999937, -15.857960131503388 ] ] ] } },
{ "type": "Feature", "properties": { "num_setor": "DF_BRASILI_SR_009_CPRM", "munic": "BRASÍLIA", "grau_risco": "Alto", "distancia_km": 0.93, "chuva_24h": 0.0, "chuva_72h": 0.0, "fonte_estacao": "openmeteo", "codigo_estacao": "openmeteo", "nome_estacao": "Open-Meteo (célula de grade)" }, "geometry": { "type": "Polygon", "coordinates": [ [ [ -48.01540763699996, -15.861143697503325 ], [ -48.015191778999963, -15.86138114050331 ], [ -48.015715233999963, -15.861944168503285 ], [ -48.015797978999956, -15.862064688503281 ], [ -48.015900510999984, -15.862161824503231 ], [ -48.015711635999942, -15.862410060503233 ], [ -48.015191778999963, -15.862115055503246 ], [ -48.01514680899993, -15.862079079503252 ], [ -48.014268988999966, -15.86146208650327 ], [ -48.013848066999969, -15.861082537503293 ], [ -48.01410349799994, -15.860936833503311 ], [ -48.014526218999954, -15.860587864503312 ], [ -48.014644940999965, -15.860740763503305 ], [ -48.014846407999983, -15.860575272503288 ], [ -48.015076655999962, -15.860693994503309 ], [ -48.014945341999976, -15.860832502503273 ], [ -48.015040678999981, -15.860954821503286 ], [ -48.01540763699996, -15.861143697503325 ] ] ] } },
{ "type": "Feature", "properties": { "num_setor": "DF_BRASILI_SR_002_CPRM", "munic": "BRASÍLIA", "grau_risco": "Alto", "distancia_km": 1.58, "chuva_24h": 0.0, "chuva_72h": 0.0, "fonte_estacao": "openmeteo", "codigo_estacao": "openmeteo", "nome_estacao": "Open-Meteo (célula de grade)" }, "geometry": { "type": "Polygon", "coordinates": [ [ [ -48.133380680999949, -15.841867075503853 ], [ -48.133332911999958, -15.841897859503836 ], [ -48.13311529799995, -15.841958367503819 ], [ -48.132934836999937, -15.841979598503826 ], [ -48.132899806999944, -15.842056028503803 ], [ -48.132928467999925, -15.842123966503841 ], [ -48.132969867999975, -15.842184473503831 ], [ -48.133074959999931, -15.84222693550384 ], [ -48.133174743999973, -15.842190843503831 ], [ -48.133262850999984, -15.842153689503846 ], [ -48.133189604999984, -15.84223755050385 ], [ -48.13302719099994, -15.842373426503793 ], [ -48.132923159999962, -15.842408457503828 ], [ -48.132795775999966, -15.842420134503808 ], [ -48.132690684999936, -15.842409518503811 ], [ -48.13259833099994, -15.842362811503842 ], [ -48.132645038999954, -15.842118658503814 ], [ -48.132787283999953, -15.841819306503858 ], [ -48.133012328999946, -15.841776845503839 ], [ -48.133101497999974, -15.841778968503844 ], [ -48.133208712999931, -15.841809752503824 ], [ -48.133380680999949, -15.841867075503853 ] ] ] } },
{ "type": "Feature", "properties": { "num_setor": "DF_BRASILI_SR_001_CPRM", "munic": "BRASÍLIA", "grau_risco": "Alto", "distancia_km": 0.5, "chuva_24h": 0.0, "chuva_72h": 0.0, "fonte_estacao": "openmeteo", "codigo_estacao": "openmeteo", "nome_estacao": "Open-Meteo (célula de grade)" }, "geometry": { "type": "Polygon", "coordinates": [ [ [ -48.15478746399998, -15.822083655504391 ], [ -48.153154887999968, -15.822679675504364 ], [ -48.153098348999947, -15.822700877504397 ], [ -48.152982913999949, -15.822700877504397 ], [ -48.152921662999979, -15.822625491504345 ], [ -48.152907527999965, -15.822552461504401 ], [ -48.152928730999975, -15.822477075504349 ], [ -48.152985269999924, -15.822406401504377 ], [ -48.153649607999967, -15.822196734504409 ], [ -48.153708502999969, -15.822128415504375 ], [ -48.153887544999975, -15.822107213504404 ], [ -48.153863986999966, -15.822015336504423 ], [ -48.154690875999961, -15.821815093504378 ], [ -48.15478746399998, -15.822083655504391 ] ] ] } },
{ "type": "Feature", "properties": { "num_setor": "DF_BRASILI_SR_022_CPRM", "munic": "BRASÍLIA", "grau_risco": "Alto", "distancia_km": 1.25, "chuva_24h": 0.0, "chuva_72h": 0.0, "fonte_estacao": "openmeteo", "codigo_estacao": "openmeteo", "nome_estacao": "Open-Meteo (célula de grade)" }, "geometry": { "type": "Polygon", "coordinates": [ [ [ -48.014853129999956, -15.89463070750236 ], [ -48.014929289999941, -15.894687827502375 ], [ -48.014858569999944, -15.894796626502345 ], [ -48.014994568999953, -15.894899985502326 ], [ -48.01499728899995, -15.895014224502351 ], [ -48.014815049999974, -15.895125744502355 ], [ -48.014581131999925, -15.895068624502349 ], [ -48.014488652999944, -15.895150224502345 ], [ -48.014281933999939, -15.894992465502348 ], [ -48.014175854999962, -15.895106704502314 ], [ -48.014344493999943, -15.895242703502319 ], [ -48.014423372999943, -15.895441261502341 ], [ -48.014276493999944, -15.895552781502358 ], [ -48.013721617999977, -15.894976145502365 ], [ -48.014156814999971, -15.894494708502361 ], [ -48.014118734999954, -15.89435870950236 ], [ -48.013988175999941, -15.894198230502374 ], [ -48.013901136999948, -15.894103031502389 ], [ -48.014012655999984, -15.893994232502362 ], [ -48.014491372999942, -15.894391349502392 ], [ -48.014752490999967, -15.89457358850235 ], [ -48.014853129999956, -15.89463070750236 ] ] ] } },
{ "type": "Feature", "properties": { "num_setor": "DF_BRASILI_SR_019CPRM", "munic": "BRASÍLIA", "grau_risco": "Alto", "distancia_km": 1.52, "chuva_24h": 0.0, "chuva_72h": 0.0, "fonte_estacao": "openmeteo", "codigo_estacao": "openmeteo", "nome_estacao": "Open-Meteo (célula de grade)" }, "geometry": { "type": "Polygon", "coordinates": [ [ [ -47.995687077999946, -15.881445724502704 ], [ -47.995559238999931, -15.881350525502722 ], [ -47.99567075899995, -15.881157406502707 ], [ -47.99543411999997, -15.880996927502729 ], [ -47.995401479999941, -15.881032287502759 ], [ -47.995238281999946, -15.881179166502747 ], [ -47.99490644399998, -15.880855488502723 ], [ -47.995401479999934, -15.880518211502766 ], [ -47.995833956999952, -15.880934368502713 ], [ -47.995915556999933, -15.880958848502743 ], [ -47.995910116999937, -15.881198206502731 ], [ -47.995836676999943, -15.881285245502719 ], [ -47.995727877999968, -15.881225406502709 ], [ -47.995687077999953, -15.881296125502717 ], [ -47.995746917999945, -15.881339645502726 ], [ -47.995687077999946, -15.881445724502704 ] ] ] } },
{ "type": "Feature", "properties": { "num_setor": "DF_BRASILI_SR_021_CPRM", "munic": "BRASÍLIA", "grau_risco": "Alto", "distancia_km": 1.2, "chuva_24h": 0.0, "chuva_72h": 0.0, "fonte_estacao": "openmeteo", "codigo_estacao": "openmeteo", "nome_estacao": "Open-Meteo (célula de grade)" }, "geometry": { "type": "Polygon", "coordinates": [ [ [ -48.011168845999975, -15.894712235502377 ], [ -48.011462603999973, -15.894913514502322 ], [ -48.011565963999949, -15.894908074502329 ], [ -48.011707402999946, -15.895052233502327 ], [ -48.011451723999976, -15.89542759050231 ], [ -48.011976680999965, -15.895832867502321 ], [ -48.01182436199997, -15.896017826502341 ], [ -48.011274925999942, -15.895623429502322 ], [ -48.010967567999955, -15.895422150502316 ], [ -48.011032846999967, -15.895337831502321 ], [ -48.011174285999978, -15.895413990502325 ], [ -48.011348364999947, -15.895190952502327 ], [ -48.011065486999939, -15.894853674502375 ], [ -48.011168845999975, -15.894712235502377 ] ] ] } },
{ "type": "Feature", "properties": { "num_setor": "DF_BRASILI_SR_012_CPRM", "munic": "BRASÍLIA", "grau_risco": "Muito alto", "distancia_km": 1.2, "chuva_24h": 0.0, "chuva_72h": 0.0, "fonte_estacao": "openmeteo", "codigo_estacao": "openmeteo", "nome_estacao": "Open-Meteo (célula de grade)" }, "geometry": { "type": "Polygon", "coordinates": [ [ [ -47.849838691999935, -15.6188783365101 ], [ -47.849978952999955, -15.618701827510078 ], [ -47.850079815999948, -15.618764866510135 ], [ -47.849988408999934, -15.61884366551012 ], [ -47.850087695999946, -15.618925615510106 ], [ -47.850497447999942, -15.618652972510084 ], [ -47.850651893999952, -15.61879796251011 ], [ -47.850275235999959, -15.619092668510081 ], [ -47.850658197999962, -15.619305425510067 ], [ -47.850519511999941, -15.619464598510101 ], [ -47.850684988999937, -15.619633227510077 ], [ -47.850867801999982, -15.619795552510077 ], [ -47.850703900999974, -15.619886959510088 ], [ -47.850522663999982, -15.619708874510078 ], [ -47.850445440999977, -15.619741969510075 ], [ -47.850335122999979, -15.619927934510082 ], [ -47.849424210999985, -15.619773489510067 ], [ -47.849709461999964, -15.61916673951011 ], [ -47.849895426999979, -15.619259722510105 ], [ -47.850032535999965, -15.619212442510117 ], [ -47.850253172999942, -15.619392103510057 ], [ -47.850338274999963, -15.619593828510061 ], [ -47.850224804999982, -15.619570188510069 ], [ -47.849878090999944, -15.619442534510094 ], [ -47.849800868999978, -15.619623771510074 ], [ -47.850012049, -15.619686810510075 ], [ -47.850210620999974, -15.61973724151005 ], [ -47.850349306999931, -15.619775065510055 ], [ -47.85040761799997, -15.619628499510107 ], [ -47.850317787999984, -15.61939683151008 ], [ -47.850007320999964, -15.619132068510071 ], [ -47.849838691999935, -15.6188783365101 ] ] ] } },
{ "type": "Feature", "properties": { "num_setor": "DF_BRASILI_SR_011_CPRM", "munic": "BRASÍLIA", "grau_risco": "Alto", "distancia_km": 1.29, "chuva_24h": 0.0, "chuva_72h": 0.0, "fonte_estacao": "openmeteo", "codigo_estacao": "openmeteo", "nome_estacao": "Open-Meteo (célula de grade)" }, "geometry": { "type": "Polygon", "coordinates": [ [ [ -47.84230978599993, -15.624417759509962 ], [ -47.842000390999942, -15.624577854509914 ], [ -47.842020178, -15.624388978509939 ], [ -47.842083135999985, -15.624243275509956 ], [ -47.84256521799994, -15.624022021509965 ], [ -47.842687536999961, -15.624248671509958 ], [ -47.84230978599993, -15.624417759509962 ] ] ] } },
{ "type": "Feature", "properties": { "num_setor": "DF_BRASILI_SR_018_CPRM", "munic": "BRASÍLIA", "grau_risco": "Alto", "distancia_km": 1.62, "chuva_24h": 0.0, "chuva_72h": 0.0, "fonte_estacao": "openmeteo", "codigo_estacao": "openmeteo", "nome_estacao": "Open-Meteo (célula de grade)" }, "geometry": { "type": "Polygon", "coordinates": [ [ [ -47.644364805999942, -15.629005926509841 ], [ -47.644389285999978, -15.629375843509825 ], [ -47.644310405999931, -15.62986544050977 ], [ -47.644139046999953, -15.629827360509806 ], [ -47.64371744999994, -15.62931056450982 ], [ -47.643624970999952, -15.629296964509836 ], [ -47.643546090999962, -15.629604322509815 ], [ -47.643502571999932, -15.629604322509815 ], [ -47.643304012999977, -15.629345924509787 ], [ -47.643287692999934, -15.629212644509794 ], [ -47.643347532999933, -15.628927046509789 ], [ -47.643644010999942, -15.62894608650984 ], [ -47.643736489999981, -15.62915552550983 ], [ -47.644008487999947, -15.629152805509841 ], [ -47.644030247999979, -15.628981446509806 ], [ -47.644364805999942, -15.629005926509841 ] ] ] } },
{ "type": "Feature", "properties": { "num_setor": "DF_BRASILI_SR_017_CPRM", "munic": "BRASÍLIA", "grau_risco": "Alto", "distancia_km": 0.41, "chuva_24h": 0.0, "chuva_72h": 0.0, "fonte_estacao": "openmeteo", "codigo_estacao": "openmeteo", "nome_estacao": "Open-Meteo (célula de grade)" }, "geometry": { "type": "Polygon", "coordinates": [ [ [ -47.654229364999935, -15.681379694508362 ], [ -47.654596561999938, -15.681455853508362 ], [ -47.655126957999983, -15.681502093508321 ], [ -47.655156877999957, -15.681668012508355 ], [ -47.655371756999955, -15.681668012508355 ], [ -47.655646474999976, -15.681284494508331 ], [ -47.655847752999939, -15.681461293508359 ], [ -47.655670954999941, -15.681749611508359 ], [ -47.655205837999972, -15.681893770508349 ], [ -47.654871279999952, -15.681915530508331 ], [ -47.654131444999962, -15.681874730508307 ], [ -47.653998165999951, -15.681776811508328 ], [ -47.652948253999959, -15.681627212508335 ], [ -47.652959133999957, -15.681396014508344 ], [ -47.653353530999937, -15.681417774508329 ], [ -47.653372570999977, -15.681167535508367 ], [ -47.653269210999959, -15.681148495508332 ], [ -47.653271930999949, -15.680960817508357 ], [ -47.653353530999937, -15.681009776508322 ], [ -47.653446699999961, -15.681081024508362 ], [ -47.653608861999942, -15.681128268508337 ], [ -47.653803750999941, -15.681222517508365 ], [ -47.654056149, -15.681321559508348 ], [ -47.654229364999935, -15.681379694508362 ] ] ] } },
{ "type": "Feature", "properties": { "num_setor": "DF_BRASILI_SR_020_CPRM", "munic": "BRASÍLIA", "grau_risco": "Alto", "distancia_km": 1.39, "chuva_24h": 0.0, "chuva_72h": 0.0, "fonte_estacao": "openmeteo", "codigo_estacao": "openmeteo", "nome_estacao": "Open-Meteo (célula de grade)" }, "geometry": { "type": "Polygon", "coordinates": [ [ [ -47.995991715999935, -15.881562683502732 ], [ -47.996228354999978, -15.881233566502754 ], [ -47.996402432999957, -15.881350525502722 ], [ -47.996418752999944, -15.881524604502745 ], [ -47.99646227299997, -15.881576283502719 ], [ -47.996707070999939, -15.881649723502701 ], [ -47.996824029999964, -15.881666043502694 ], [ -47.997076988999936, -15.881685083502731 ], [ -47.997052508999957, -15.881840121502728 ], [ -47.996753310999964, -15.881905401502733 ], [ -47.996557471999949, -15.88185372150272 ], [ -47.995991715999935, -15.881562683502732 ] ] ] } },
{ "type": "Feature", "properties": { "num_setor": "DF_BRASILI_SR_014_CPRM", "munic": "BRASÍLIA", "grau_risco": "Alto", "distancia_km": 1.49, "chuva_24h": 0.0, "chuva_72h": 0.0, "fonte_estacao": "openmeteo", "codigo_estacao": "openmeteo", "nome_estacao": "Open-Meteo (célula de grade)" }, "geometry": { "type": "Polygon", "coordinates": [ [ [ -47.84547663099994, -15.619624169510079 ], [ -47.845626347999939, -15.619823135510103 ], [ -47.845659443999985, -15.619911390510074 ], [ -47.845785521999971, -15.620447221510043 ], [ -47.845750849999945, -15.62061900251004 ], [ -47.845867471999945, -15.620916860510048 ], [ -47.845790248999947, -15.62097044351005 ], [ -47.845730362999973, -15.620902677510031 ], [ -47.845657867999932, -15.620774629510063 ], [ -47.845478206999985, -15.620397971510076 ], [ -47.84538837599996, -15.620114296510044 ], [ -47.845145676999948, -15.620177335510036 ], [ -47.845115732999943, -15.620079625510057 ], [ -47.845344248999936, -15.620002402510057 ], [ -47.845440383999971, -15.619944091510085 ], [ -47.845352128999941, -15.619658840510054 ], [ -47.84547663099994, -15.619624169510079 ] ] ] } },
{ "type": "Feature", "properties": { "num_setor": "DF_BRASILI_SR_013_CPRM", "munic": "BRASÍLIA", "grau_risco": "Muito alto", "distancia_km": 1.46, "chuva_24h": 0.0, "chuva_72h": 0.0, "fonte_estacao": "openmeteo", "codigo_estacao": "openmeteo", "nome_estacao": "Open-Meteo (célula de grade)" }, "geometry": { "type": "Polygon", "coordinates": [ [ [ -47.843851885999982, -15.623917302509934 ], [ -47.843738415999951, -15.623814864509939 ], [ -47.843842429999938, -15.623754977509975 ], [ -47.844077249999941, -15.62380540850995 ], [ -47.844250606999935, -15.623931486509935 ], [ -47.844316797999973, -15.623934638509969 ], [ -47.844521673999964, -15.62369981850998 ], [ -47.844702910999956, -15.623485485509951 ], [ -47.844849476999961, -15.623609987509957 ], [ -47.84461938499993, -15.623825895509984 ], [ -47.844594168999947, -15.623915726509951 ], [ -47.844193871999948, -15.62416945750992 ], [ -47.844086705999985, -15.624029196509973 ], [ -47.843977963999983, -15.623958277509979 ], [ -47.843851885999982, -15.623917302509934 ] ] ] } }
]
}
